Id;Nombre;Direccion;Distrito;Oxigeno Disponible;Costo Oxigeno;Latitud;longitud
1;CENTRO DE SALUD BAYOVAR;AVENIDA AV. 1ERO DE MAYO 3RA ETAPA - AAHH BAYOVAR DISTRITO SAN JUAN DE LURIGANCHO PROVINCIA LIMA DEPARTAMENTO LIMA;San Juan de Lurigancho;60;920;-11.9521131;-76.9913771
2;CENTRO DE SALUD SU SANTIDAD JUAN PABLO II;JIRÓN ESQUINA JIRON EL PASO Y JIRON EL PARALELO S/N - AAHH JUAN PABLO II S/N ESQUINA JIRON EL PASO Y JIRON EL PARALELO S/N - AAHH JUAN PABLO II SAN JUAN DE LURIGANCHO LIMA LIMA;San Juan de Lurigancho;10;1060;-11.9448193;-76.9905243
3;10 DE OCTUBRE;OTROS MZ. F 5 S/N AAHH 10 DE OCTUBRE S/N MZ. F 5 S/N AAHH 10 DE OCTUBRE SAN JUAN DE LURIGANCHO LIMA LIMA;San Juan de Lurigancho;32;890;-11.9452166;-76.9877759
4;CENTRO DE SALUD GANIMEDES;AVENIDA EL SOL MZ J S/N - URB. GANIMEDES S/N SAN JUAN DE LURIGANCHO LIMA LIMA;San Juan de Lurigancho;1389;550;-11.9831399;-77.0114007
5;CENTRO DE SALUD MEDALLA MILAGROSA;AVENIDA AV. EL PARQUE S/N -URB. SAN RAFAEL S/N AV. EL PARQUE S/N -URB. SAN RAFAEL SAN JUAN DE LURIGANCHO LIMA LIMA;San Juan de Lurigancho;138;630;-11.9767362;-77.0058047
6;HUASCAR II;OTROS GRUPO II MZ 23 LTES. 101-107-108 - AAHH HUASCAR DISTRITO SAN JUAN DE LURIGANCHO PROVINCIA LIMA DEPARTAMENTO LIMA;San Juan de Lurigancho;435;630;-11.9667218;-77.0109956
7;HUASCAR XV;AVENIDA AV.RIO GRANDE S/N ALTURA PARADERO 9 AV.J.C.MARIATEGUI-HUASCAR GRUPO XV S/N AV.RIO GRANDE S/N ALTURA PARADERO 9 AV.J.C.MARIATEGUI-HUASCAR GRUPO XV SAN JUAN DE LURIGANCHO LIMA LIMA;San Juan de Lurigancho;26;1110;-11.9557782;-77.0026526
8;JAIME ZUBIETA;JIRÓN JR.COCHARCAS MZ. A LT. 1 - ANEXO MZ. K-15, LOTE 46 AAHH JAIME ZUBIETA JR.COCHARCAS MZ. A LT. 1 - ANEXO MZ. K-15, LOTE 46 AAHH JAIME ZUBIETA SAN JUAN DE LURIGANCHO LIMA LIMA;San Juan de Lurigancho;356;360;-11.9634978;-76.9888954
9;SANTA MARIA;AVENIDA AV.HEROES DEL CENEPA MZ D2 - AAHH SANTA MARIA AV.HEROES DEL CENEPA MZ D2 - AAHH SANTA MARIA SAN JUAN DE LURIGANCHO LIMA LIMA;San Juan de Lurigancho;95;720;-11.9653616;-76.975844
10;CENTRO DE SALUD CRUZ DE MOTUPE;AVENIDA AV.CENTRAL S/N-GRUPO 5 - AAHH CRUZ DE MOTUPE (ALT PDO 8 AV.WIESSE) S/N AV.CENTRAL S/N-GRUPO 5 - AAHH CRUZ DE MOTUPE (ALT PDO 8 AV.WIESSE) SAN JUAN DE LURIGANCHO LIMA LIMA;San Juan de Lurigancho;15;600;-11.9408268;-76.9749709
11;JOSE CARLOS MARIATEGUI;JIRÓN JR. EL CRUCE MZ. H S/N AAHH JOSE CARLOS MARIATEGUI NÚMERO S/N DISTRITO SAN JUAN DE LURIGANCHO PROVINCIA LIMA DEPARTAMENTO LIMA;San Juan de Lurigancho;74;600;-11.9450035;-76.9843804
12;ENRIQUE MONTENEGRO;AVENIDA AV.WIESSE S/N ENRIQUE MONTENEGRO (COSTADO COLEGIO NESTOR ESCUDERO - CRUCE CALLE 10) S/N AV.WIESSE S/N ENRIQUE MONTENEGRO (COSTADO COLEGIO NESTOR ESCUDERO - CRUCE CALLE 10) SAN JUAN DE LURIGANCHO LIMA LIMA;San Juan de Lurigancho;61;350;-11.9370395;-76.9709422
13;LA LIBERTAD;JIRÓN JR. MARGARITAS 1545  - URB. INCA MANCO CAPAC DISTRITO SAN JUAN DE LURIGANCHO PROVINCIA LIMA DEPARTAMENTO LIMA;San Juan de Lurigancho;85;680;-12.0041291;-76.9955817
14;CENTRO DE SALUD LA HUAYRONA;CALLE CALLE LAS GEMAS S/ -  EL PARQUE -COOP.LA HUAYRONA DISTRITO SAN JUAN DE LURIGANCHO PROVINCIA LIMA DEPARTAMENTO LIMA;San Juan de Lurigancho;165;330;-11.9942159;-77.0065573
15;CENTRO DE SALUD SANTA FE DE TOTORITA;JIRÓN JR. CANTUTA S/N  AAHH. SANTA FE DE TOTORITA NÚMERO S/N DISTRITO SAN JUAN DE LURIGANCHO PROVINCIA LIMA DEPARTAMENTO LIMA;San Juan de Lurigancho;350;1030;-11.9840322;-77.093019
16;SAN HILARION;JIRÓN JR. LOS SILICIOS S/N URB. SAN HILARION S/N JR. LOS SILICIOS S/N URB. SAN HILARION SAN JUAN DE LURIGANCHO LIMA LIMA;San Juan de Lurigancho;7;1140;-11.9957864;-77.0158637
17;SAN FERNANDO;JIRÓN JR.LAS ORTIGAS 1893 URB.SAN HILARION-ALTURA PDO.13 AV. LAS FLORES JR.LAS ORTIGAS 1893 URB.SAN HILARION-ALTURA PDO.13 AV. LAS FLORES SAN JUAN DE LURIGANCHO LIMA LIMA;San Juan de Lurigancho;10;1000;-12.0024575;-77.0105584
18;SANTA ROSA DE LIMA;AVENIDA LIMA MZ. C LTE. 21-22 - CANTO CHICO NÚMERO S/N DISTRITO SAN JUAN DE LURIGANCHO PROVINCIA LIMA DEPARTAMENTO LIMA;San Juan de Lurigancho;24;800;-12.0053943;-77.016424
19;CHACARILLA DE OTERO;JIRÓN JR. JOSE ANTONIO ENCINAS Nº 155 - URB.CHACARILLA DE OTERO JR. JOSE ANTONIO ENCINAS Nº 155 - URB.CHACARILLA DE OTERO SAN JUAN DE LURIGANCHO LIMA LIMA;San Juan de Lurigancho;26;1110;-12.0208724;-77.0068486
20;DANIEL ALCIDES CARRION;JIRÓN JR. ALFONSO UGARTE, CUADRA 3 S/N COOPERATIVA DANIEL ALCIDES CARRION S/N JR. ALFONSO UGARTE, CUADRA 3 S/N COOPERATIVA DANIEL ALCIDES CARRION SAN JUAN DE LURIGANCHO LIMA LIMA;San Juan de Lurigancho;121;1030;-12.0232824;-76.976931
21;CAJA DE AGUA;JIRÓN URB CAJA DE AGUA JR. MOQUEGUA 202 URB CAJA DE AGUA JR. MOQUEGUA 202 SAN JUAN DE LURIGANCHO LIMA LIMA;San Juan de Lurigancho;452;810;-12.0268025;-77.015351
22;CENTRO DE SALUD MANGOMARCA;AVENIDA AV. EL SANTUARIO S/N(CDRA. 24 S/N) URB. MANGOMARCA NÚMERO S/N DISTRITO SAN JUAN DE LURIGANCHO PROVINCIA LIMA DEPARTAMENTO LIMA;San Juan de Lurigancho;3;1040;-12.0105371;-76.9792263
23;CAMPOY;AVENIDA AV. PRINCIPAL MZ. G LTE. 2-COOP.EL VALLE AV. PRINCIPAL MZ. G LTE. 2-COOP.EL VALLE SAN JUAN DE LURIGANCHO LIMA LIMA;San Juan de Lurigancho;48;760;-12.0212961;-76.9601533
24;CENTRO DE SALUD ZARATE;JIRÓN JR.LOS CHASQUIS CON YUPANQUIS (ANEXO AV. LOS AMAUTAS Nº 835) JR.LOS CHASQUIS CON YUPANQUIS (ANEXO AV. LOS AMAUTAS Nº 835) SAN JUAN DE LURIGANCHO LIMA LIMA;San Juan de Lurigancho;29;1090;-12.023286;-76.994517
25;CENTRO DE SALUD MAX ARIAS SCHREIBER;JIRÓN JR. ANTONIO RAYMONDI 220 PRIMER PISO JR. ANTONIO RAYMONDI 220 PRIMER PISO LA VICTORIA LIMA LIMA;La Victoria;1013;460;-12.0608274;-77.03213
26;CENTRO DE SALUD JUAN PEREZ CARRANZA;JIRÓN JR. CUZCO 925 JR. CUZCO 925 LIMA LIMA LIMA;Cercado de Lima;3;620;-12.0537765;-77.022701
27;EL PORVENIR;JIRÓN JR. SEBASTIÁN BARRANCA 977 JR. SEBASTIÁN BARRANCA 977 LA VICTORIA LIMA LIMA;La Victoria;9;310;-12.0676604;-77.0209069
28;SAN COSME;AVENIDA AV. BAUZATE Y MEZA - ALTURA DE LA CUADRA 23 AV. BAUZATE Y MEZA - ALTURA DE LA CUADRA 23 LA VICTORIA LIMA LIMA;La Victoria;40;1100;-12.0619424;-77.0067738
29;CENTRO DE SALUD SAN LUIS;CALLE CALLE RAÚL VILLARÁN 332 CALLE RAÚL VILLARÁN 332 SAN LUIS LIMA LIMA;San Luis;53;940;-12.0756274;-76.9972532
30;CENTRO DE SALUD MATERNO INFANTIL SURQUILLO;JIRÓN JR. NARCISO DE LA COLINA 840 JR. NARCISO DE LA COLINA 840 SURQUILLO LIMA LIMA;Surquillo;32;420;-12.1182384;-77.022067
31;CENTRO DE SALUD SAN ATANACIO DE PEDREGAL;AVENIDA AV SAUCE MZ A1 LOTE 1 AV SAUCE MZ A1 LOTE 1 SURQUILLO LIMA LIMA;Surquillo;8;380;-12.1212565;-76.9990462
32;VILLA VICTORIA PORVENIR;AVENIDA AV. MARTIN LUTHER KING S/N°, URB. VILLA VICTORIA S/N AV. MARTIN LUTHER KING S/N°, URB. VILLA VICTORIA SURQUILLO LIMA LIMA;Surquillo;6;530;-12.1088569;-77.0120429
33;CENTRO DE SALUD TODOS LOS SANTOS SAN BORJA;JIRÓN JR FRANZ SCHUBERT S/N ESQUINA CON JR BOZOVICH S/N JR FRANZ SCHUBERT S/N ESQUINA CON JR BOZOVICH SAN BORJA LIMA LIMA;San Borja;1;480;-12.1020977;-76.9934694
34;CENTRO DE SALUD BREÑA;JIRÓN JR. NAPO 1445 JR. NAPO 1445 BREÑA LIMA LIMA;Breña;21;710;-12.0569101;-77.05366011
35;CENTRO DE SALUD CHACRA COLORADA;JIRÓN JR. CARHUAZ 509 JR. CARHUAZ 509 BREÑA LIMA LIMA;Breña;25;870;-12.0539769;-77.0480938
36;CONDE DE LA VEGA BAJA;JIRÓN JR. CONDE DE LA VEGA BAJA 488 JR. CONDE DE LA VEGA BAJA 488 LIMA LIMA LIMA;Cercado de Lima;45;560;-12.039118;-77.05043753
37;CENTRO DE SALUD MIRONES BAJO;JIRÓN JR. BRUNO TERREROS 144 JR. BRUNO TERREROS 144 LIMA LIMA LIMA;Cercado de Lima;10;250;-12.0359928;-77.0722189
38;CENTRO DE SALUD SAN SEBASTIAN;JIRÓN JR. ICA 774-778 JR. ICA 774-778 LIMA LIMA LIMA;Cercado de Lima;26;650;-12.0428657;-77.0387974
39;CENTRO DE SALUD MIRONES;AVENIDA LUIS BRAYLE NÚMERO 13 DISTRITO LIMA PROVINCIA LIMA DEPARTAMENTO LIMA;Cercado de Lima;17;410;-12.0509882;-77.0673543
40;CENTRO DE SALUD UNIDAD VECINAL Nº 3;OTROS BLOCK Nº 1 UNIDAD VECINAL Nº 3 DISTRITO LIMA PROVINCIA LIMA DEPARTAMENTO LIMA;Cercado de Lima;6;1070;-12.0512449;-77.0821925
41;CENTRO DE SALUD VILLA MARIA PERPETUO SOCORRO;JIRÓN JR. VILLA MARIA 745 JR. VILLA MARIA 745 LIMA LIMA LIMA;Cercado de Lima;35;870;-12.0367561;-77.0598619
42;CENTRO DE SALUD LINCE;JIRÓN JR. MANUEL CANDAMO 495 JR. MANUEL CANDAMO 495 LINCE LIMA LIMA;Lince;25;340;-12.0820795;-77.0318652
43;CENTRO DE SALUD MATERNO INFANTIL MAGDALENA;JIRÓN JR. JUNÍN 322 DISTRITO MAGDALENA DEL MAR PROVINCIA LIMA DEPARTAMENTO LIMA;Magdalena del Mar;3;1170;-12.0886944;-77.0686271
44;CENTRO DE SALUD SAN ISIDRO;AVENIDA AV. PEREZ ARANIBAR (DEL EJÉRCITO) 1756 DISTRITO SAN ISIDRO PROVINCIA LIMA DEPARTAMENTO LIMA;San Isidro;128;1200;-12.1067332;-77.0549116
45;CENTRO DE SALUD SAN MIGUEL;AVENIDA AV LIBERTAD  AV LOS MOCHICAS S/N S/N AV LIBERTAD  AV LOS MOCHICAS S/N SAN MIGUEL LIMA LIMA;San Miguel;38;540;-12.0813992;-77.0987145
46;CENTRO DE SALUD SANTA CRUZ DE MIRAFLORES;AVENIDA AV. JOSE PARDO N° 796 DISTRITO MIRAFLORES PROVINCIA LIMA DEPARTAMENTO LIMA;Miraflores;16;270;-12.1189648;-77.0366847
47;JESUS MARIA;AVENIDA AV. ARNALDO MÁRQUEZ 1750 DISTRITO JESUS MARIA PROVINCIA LIMA DEPARTAMENTO LIMA;Jesus Maria;4;450;-12.0779014;-77.0530192
48;CENTRO ESPECIALIZADO DE REFERENCIA DE ITSS Y VIH/SIDA RAUL PATRUCCO PUIG;JIRÓN JR. HUANTA 927 JR. HUANTA 927 LIMA LIMA LIMA;Cercado de Lima;13;740;-12.0531204;-77.0231298
49;CENTRO ODONTOLOGICO AMERICANO - SEDE DE ESPECIALIDADES;CALLE CALLE MANUEL ATANASIO FUENTES 260 DISTRITO SAN ISIDRO PROVINCIA LIMA DEPARTAMENTO LIMA;San Isidro;1;660;-12.09666807;-77.03044585
50;CENTRO ODONTOLOGICO AMERICANO - SEDE CENTRAL;AVENIDA AV. JUAN DE ARONA NRO. 425 AV. JUAN DE ARONA NRO. 425 SAN ISIDRO LIMA LIMA;San Isidro;3;1020;-12.09659347;-77.03043711
51;POLICLÍNICO DE COMPLEJIDAD CRECIENTE SAN LUIS;AVENIDA AVENIDA CIRCUNVALACION N° 2161 SAN LUIS DISTRITO SAN LUIS PROVINCIA LIMA DEPARTAMENTO LIMA;San Luis;7;1200;-12.0732277;-76.9919825
52;CERDENT;CALLE ALMIRANTE LORD COCHRANE 220 226 236 240 DISTRITO SAN ISIDRO PROVINCIA LIMA DEPARTAMENTO LIMA;San Isidro;4;950;-12.1084371;-77.0393144
53;IPOR: INSTITUTO PERUANO DE ONCOLOGIA & RADIOTERAPIA;AVENIDA AV. PABLO CARRIQUIRRY Nº 115 DISTRITO SAN ISIDRO PROVINCIA LIMA DEPARTAMENTO LIMA;San Isidro;20;930;-12.09074703;-77.01882957
54;SISOL SALUD LINCE;AVENIDA AV. CANEVARO Nº 550 DISTRITO LINCE PROVINCIA LIMA DEPARTAMENTO LIMA;Lince;200;320;-12.0839839;-77.0394842
55;SOLIDARIDAD CAMANA;JIRÓN JR. CAMANA 700 DISTRITO LIMA PROVINCIA LIMA DEPARTAMENTO LIMA;Cercado de Lima;19;430;-12.0493589;-77.035362
56;CENTRO MEDICO VESALIO;JIRÓN JR. MERCATOR 430 URBANIZACION CORPAC DISTRITO SAN BORJA PROVINCIA LIMA DEPARTAMENTO LIMA;San Borja;10;520;-12.1073179;-77.0098346
57;POLICLINICO CHINCHA;JIRÓN JR. CHINCHA 226 DISTRITO LIMA PROVINCIA LIMA DEPARTAMENTO LIMA;Cercado de Lima;10;1190;-12.06264167;-77.03923833
58;SISOL SALUD  SURQUILLO;AVENIDA AV. ANGAMOS 714-734 DISTRITO SURQUILLO PROVINCIA LIMA DEPARTAMENTO LIMA;Surquillo;2;440;-12.11349791;-77.02400451
59;PRONTO SALUD;AVENIDA AVENIDA MANCO CAPAC # 700 DISTRITO LA VICTORIA PROVINCIA LIMA DEPARTAMENTO LIMA;La Victoria;62;380;-12.0673203;-77.0288698
60;POLICLINICO PABLO BERMUDEZ;JIRÓN PABLO BERMUDEZ NÚMERO 226 DISTRITO JESUS MARIA PROVINCIA LIMA DEPARTAMENTO LIMA;Jesus Maria;8;270;-12.0726176;-77.0383011
61;SISOL JUAN PABLO II;CALLE 16 NÚMERO S/N DISTRITO SAN JUAN DE LURIGANCHO PROVINCIA LIMA DEPARTAMENTO LIMA;San Juan de Lurigancho;4;1080;-11.98072274;-76.98412977
62;SISOL TRABAJADORES HOSPITAL DEL NIÑO;AVENIDA AV. REPUBLICA DE POLONIA 1504 DISTRITO SAN JUAN DE LURIGANCHO PROVINCIA LIMA DEPARTAMENTO LIMA;San Juan de Lurigancho;14;420;-11.958086;-76.990394
63;CENTRO MEDICO ANCIJE;JIRÓN JR. CHOTA Nº 1449 - CERCADO DE LIMA DISTRITO LIMA PROVINCIA LIMA DEPARTAMENTO LIMA;Cercado de Lima;6;920;-12.0590926;-77.0401513
64;ALIADA;AVENIDA AV. JOSE GALVEZ BARRENECHEA 1044 - URB CORPAC AV. JOSE GALVEZ BARRENECHEA 1044 - URB CORPAC SAN ISIDRO LIMA LIMA;San Isidro;3;1130;-12.10621099;-77.01091963
65;DENTAL HOUSE CLINICAS ODONTOLOGICAS;JIRÓN JR UCAYALI 164 URB PANDO SAN MIGUEL DISTRITO SAN MIGUEL PROVINCIA LIMA DEPARTAMENTO LIMA;San Miguel;2;1060;-12.07546397;-77.08289748
66;SUIZA LAB;AVENIDA AV ANGAMOS OESTE N° 300 DISTRITO MIRAFLORES PROVINCIA LIMA DEPARTAMENTO LIMA;Miraflores;4;300;-12.1135251;-77.0314966
67;POLICLINICO ONKOS;AVENIDA AV. BRASIL Nº 3621-3615 DISTRITO MAGDALENA DEL MAR PROVINCIA LIMA DEPARTAMENTO LIMA;Magdalena del Mar;2;570;-12.092528;-77.067926
68;SISOL SALUD JOSE CARLOS MARIATEGUI;AVENIDA AV. CONTINUACION S/N AAHH JOSE CARLOS MARIATEGUI NÚMERO S/N DISTRITO SAN JUAN DE LURIGANCHO PROVINCIA LIMA DEPARTAMENTO LIMA;San Juan de Lurigancho;8;680;-11.938192;-76.989895
69;POLICLINICO SANTA CRUZ;AVENIDA AV. MARISCAL LA MAR 1390 URB. SANTA CRUZ NÚMERO 1390 URBANIZACIÓN SANTA CRUZ DISTRITO MIRAFLORES PROVINCIA LIMA DEPARTAMENTO LIMA;Miraflores;1;280;-12.109051;-77.0498521
70;CENTRO MEDICO SANTA ADELA SAC;CALLE CALLE SAYCUSCA 244-246 URB. MARANGA DISTRITO SAN MIGUEL PROVINCIA LIMA DEPARTAMENTO LIMA;San Miguel;12;930;-12.1241585;-77.0974571
71;POLICLINICO CENTRAL DE PREVENCION LARCO;AVENIDA AV. JOSE A. LARCO 670 AV. JOSE A. LARCO 670 MIRAFLORES LIMA LIMA;Miraflores;48;530;-12.0839961;-77.0293361
72;NATCLAR;CALLE CALLE JUVENAL DENEGRI Nº 202 - 204 URB. SANTA CATALINA DISTRITO LA VICTORIA PROVINCIA LIMA DEPARTAMENTO LIMA;La Victoria;8;890;-12.0284702;-77.0113653
73;SAN JOAQUIN;AVENIDA AV. GRAN CHIMU 613 - URB. ZARATE DISTRITO SAN JUAN DE LURIGANCHO PROVINCIA LIMA DEPARTAMENTO LIMA;San Juan de Lurigancho;9;1130;-12.0473108;-77.0116141
74;INSTITUTO DE IMAGENES MEDICAS;AVENIDA AV. ALFONSO UGARTE 560 1ER 2DO 3ER Y 5TO PISO DISTRITO LIMA PROVINCIA LIMA DEPARTAMENTO LIMA;Cercado de Lima;15;1040;-12.1272417;-77.0429885
75;CENTRO ODONTOLÓGICO CANO ALVAREZ;AVENIDA AV. REDUCTO 900 DISTRITO MIRAFLORES PROVINCIA LIMA DEPARTAMENTO LIMA;Miraflores;5;570;-12.093721;-77.0244212
76;MEDEX;AVENIDA AV. REPUBLICA DE PANAMA 3065 DISTRITO SAN ISIDRO PROVINCIA LIMA DEPARTAMENTO LIMA;San Isidro;8;670;-12.0687255;-77.020413
77;SERVICIO DE SALUD;AVENIDA AVENIDA UNIVERSITARIA 1801 DISTRITO SAN MIGUEL PROVINCIA LIMA DEPARTAMENTO LIMA;San Miguel;3;710;-12.0925264;-77.0781351
78;POLICLINICO SANTA TERESA DE JESUS;JIRÓN BENITO LAZO NÚMERO 632 DISTRITO MAGDALENA DEL MAR PROVINCIA LIMA DEPARTAMENTO LIMA;Magdalena del Mar;4;590;-12.0848265;-77.073451
79;LUCE MEDIC;JIRÓN JR. RIVADENEYRA 1025, 1ER., 2DO., 3ER., Y 4TO. PISO, URB SANTA CATALINA DISTRITO LA VICTORIA PROVINCIA LIMA DEPARTAMENTO LIMA;La Victoria;30;360;-12.103714;-77.016716
80;MILENIUM SALUD;AVENIDA AV. PETIT THOUARS 4136 DISTRITO MIRAFLORES PROVINCIA LIMA DEPARTAMENTO LIMA;Miraflores;2;760;-12.0748594;-77.0305329
81;POLICLINICO DE MEDICINA CIENTIFICO NATURAL;AVENIDA AV. CUBA 1005 JESUS MARIA DISTRITO JESUS MARIA PROVINCIA LIMA DEPARTAMENTO LIMA;Jesus Maria;12;760;-12.0930053;-77.0430624
82;SALUD OCUPACIONAL AUNA;AVENIDA AV. JAVIER PRADO OESTE 805-809 DISTRITO MAGDALENA DEL MAR PROVINCIA LIMA DEPARTAMENTO LIMA;Magdalena del Mar;9;370;-12.121625;-77.0604474
83;CENTRO ODONTOLOGICO AMERICANO - AURORA;AVENIDA AV. ROOSEVELT (EX REPUBLICA DE PANAMA) Nº 5806 DISTRITO MIRAFLORES PROVINCIA LIMA DEPARTAMENTO LIMA;Miraflores;7;1040;-11.96820077;-77.0183749
84;SISOL SALUD SEÑOR DE LOS MILAGROS;CALLE CALLE LAS MARGARITAS S/N. AAHH SEÑOR DE LOS MILAGROS NÚMERO S/N DISTRITO SAN JUAN DE LURIGANCHO PROVINCIA LIMA DEPARTAMENTO LIMA;San Juan de Lurigancho;52;550;-12.0063693;-76.98618735
85;CENTRO MEDICO MATERNO INFANTIL SANCHEZ;AVENIDA AV. LOS AMELOS 1725 - URB. SAN HILARION AV. LOS AMELOS 1725 - URB. SAN HILARION SAN JUAN DE LURIGANCHO LIMA LIMA;San Juan de Lurigancho;10;520;-12.1152646;-77.0108291
86;BIOSMED;CALLE CALLE OCTAVIO PAZ 255 URB . LA  CALERA SURQUILLO DISTRITO SURQUILLO PROVINCIA LIMA DEPARTAMENTO LIMA;Surquillo;12;1080;-12.0910579;-77.0061716
87;DIAGNOLAB EIRL;AVENIDA AV JOSE GALVEZ BARRENECHEA 153 DISTRITO SAN ISIDRO PROVINCIA LIMA DEPARTAMENTO LIMA;San Isidro;9;620;-12.087682;-77.013703
88;POLICLÍNICO PERUANO JAPONÉS;AVENIDA AV. GREGORIO ESCOBEDO NO. 783 DISTRITO JESUS MARIA PROVINCIA LIMA DEPARTAMENTO LIMA;Jesus Maria;28;1040;-12.07254765;-77.054784
89;MEDICENTRO BIOCIENCIAS;AVENIDA AV. SUCRE 134 DISTRITO PUEBLO LIBRE PROVINCIA LIMA DEPARTAMENTO LIMA;Pueblo Libre;31;1100;-12.0760043;-77.06205167
90;PREVENTIS SALUD;AVENIDA AV. SALAVERRY N° 1071 DISTRITO JESUS MARIA PROVINCIA LIMA DEPARTAMENTO LIMA;Jesus Maria;10;570;-12.10618026;-77.0418855
91;FAMISALUD;AVENIDA AV. AREQUIPA 4067 DISTRITO MIRAFLORES PROVINCIA LIMA DEPARTAMENTO LIMA;Miraflores;10;740;-12.0885928;-77.03083611
92;POLICLINICO DIVINO NIÑO JESUS;AVENIDA AV AREQUIPA Nº 2457 2DO PISO DISTRITO LINCE PROVINCIA LIMA DEPARTAMENTO LIMA;Lince;65;990;-12.09155839;-77.03343785
93;CENTRO ODONTOLOGICO ANDAMAYO E.I.R.L.;JIRÓN JR. BOLOGNESI 498, 2DO PISO - MAGDALENA DEL MAR DISTRITO MAGDALENA DEL MAR PROVINCIA LIMA DEPARTAMENTO LIMA;Magdalena del Mar;4;320;-12.1182244;-77.07262687
94;FEBAN;CALLE ALFA AGUILA 100-102 106-108-112-114 CALLE ALFA AGUILA 108-112 SURQUILLO LIMA LIMA;Surquillo;78;290;-12.1074758;-77.0036747
95;POLICLINICO MUNICIPAL DE SAN ISIDRO;CALLE CALLE PAUL HARRIS 205 DISTRITO SAN ISIDRO PROVINCIA LIMA DEPARTAMENTO LIMA;San Isidro;12;1190;-12.10686496;-77.05116189
96;CENTRO ODONTOLOGICO AMERICANO - SEDE SAN BORJA;AVENIDA AV. JOAQUIN MADRID N° 235 URB LAS CAMELIAS DISTRITO SAN BORJA PROVINCIA LIMA DEPARTAMENTO LIMA;San Borja;6;710;-12.0876097;-76.99963301
97;OPTIMA SALUD S.A.C.;AVENIDA AV. ALBERTO ALEXANDER N° 2480 LINCE DISTRITO LINCE PROVINCIA LIMA DEPARTAMENTO LIMA;Lince;2;640;-12.05486498;-77.0470551
98;POLICLINICO CORAZON DE JESUS;JIRÓN JIRON LORETO 482 DISTRITO BREÑA PROVINCIA LIMA DEPARTAMENTO LIMA;Breña;10;290;-12.0925599;-77.04922534
99;SISOL SALUD MAGDALENA;JIRÓN JR. BOLOGNESI 260 DISTRITO MAGDALENA DEL MAR PROVINCIA LIMA DEPARTAMENTO LIMA;Magdalena del Mar;8;300;-12.09781567;-77.0700289
100;CENTRO MEDICO CORPAC S.A.;CALLE CALLE GONZÁLES OLAECHEA Nº 165, URB. CÓRPAC DISTRITO SAN ISIDRO PROVINCIA LIMA DEPARTAMENTO LIMA;San Isidro;4;880;-12.03112268;-77.02419051
101;POLICLINICO PNP ZARATE;CALLE CALLE ENRIQUE PETRAL S/N NÚMERO S/N DISTRITO SAN JUAN DE LURIGANCHO PROVINCIA LIMA DEPARTAMENTO LIMA;San Juan de Lurigancho;6;780;-12.0469717;-77.01145145
102;CENTRO DIAGNOSTICO MIRAFLORES;AVENIDA AV. ALFREDO BENAVIDES 298 DISTRITO MIRAFLORES PROVINCIA LIMA DEPARTAMENTO LIMA;Miraflores;6;630;-12.0875718;-77.0495381
103;CONTROL VITAL;AVENIDA AVENIDA JAVIER PRADO NO. 2674 DISTRITO SAN BORJA PROVINCIA LIMA DEPARTAMENTO LIMA;San Borja;20;340;-12.0750062;-76.9982349
104;SERVIMEDIC S.P.S;CALLE CAL. FRANCISCO DE ZELA NRO. 2412 DISTRITO LINCE PROVINCIA LIMA DEPARTAMENTO LIMA;Lince;6;830;-12.08789994;-77.0407504
105;CENTRO ODONTOLÓGICO SAEM;JIRÓN TIZIANO 493 MZ L3 LT 01 LOCAL 201-501 SAN BORJA III ETAPA DISTRITO SAN BORJA PROVINCIA LIMA DEPARTAMENTO LIMA;San Borja;5;1200;-12.0987129;-76.99685011
106;INSTITUTO PERUANO DEL HUESO Y LA ARTICULACION;AVENIDA AV. PETIT THOUARS Nº 3954 DISTRITO SAN ISIDRO PROVINCIA LIMA DEPARTAMENTO LIMA;San Isidro;15;490;-12.1026591;-77.0312328
107;CENTRO ODONTOLOGICO AMERICANO - SURQUILLO;CALLE CALLE LAS TIENDAS N°331 DPTO- 101 DISTRITO SURQUILLO PROVINCIA LIMA DEPARTAMENTO LIMA;Surquillo;15;640;-11.9946077;-77.0211603
108;CENTRO MEDICO MATERNO INFANTIL SANTA ELIZABETH;AVENIDA AV. 13 DE ENERO 2166-2168 DISTRITO SAN JUAN DE LURIGANCHO PROVINCIA LIMA DEPARTAMENTO LIMA;San Juan de Lurigancho;15;740;-12.08551306;-77.00507
109;INMENSA;JIRÓN JIRON RISSO 390 TERCER PISO DISTRITO LINCE PROVINCIA LIMA DEPARTAMENTO LIMA;Lince;13;490;-12.1109484;-77.03246946
110;CENTRO DETECTOR DEL CANCER;OTROS CALLE ALFA NRO. F76 MZ.F-12 LT.76 PAPA JUAN XXIII DISTRITO SAN BORJA PROVINCIA LIMA DEPARTAMENTO LIMA;San Borja;7;1140;-12.0085642;-76.9991898
111;SISOL SALUD SAN JUAN DE LURIGANCHO;AVENIDA AV. PROCERES DE LA INDEPENDENCIA S/N (DENTRO DEL PARQUE ZONAL HUIRACOCHA) NÚMERO S/N DISTRITO SAN JUAN DE LURIGANCHO PROVINCIA LIMA DEPARTAMENTO LIMA;San Juan de Lurigancho;5;710;-12.1256712;-77.0035429
112;ODALAB SRL;AVENIDA AVENIDA TOMAS MARSANO 2643, URBANIZACIÓN EL PEDREGAL DISTRITO SURQUILLO PROVINCIA LIMA DEPARTAMENTO LIMA;Surquillo;20;890;-12.09010087;-77.0030483
113;CARDIOCLINIC;AVENIDA AV GUARDIA CIVIL 301 5TO PISO (INT. CLÍNICA SANTA LUCIA) DISTRITO SAN BORJA PROVINCIA LIMA DEPARTAMENTO LIMA;San Borja;10;1100;-12.09755453;-77.00756527
114;POLICLINICO POLICIAL MININTER;AVENIDA AV CANAVAL Y MOREYRA (AV CORPAC) S/N - INTERIOR DE MINISTERIO DEL INTERIOR NÚMERO S/N DISTRITO SAN ISIDRO PROVINCIA LIMA DEPARTAMENTO LIMA;San Isidro;11;1170;-12.02542475;-77.01516128
115;POLICLINICO CAYETANO HEREDIA.;AVENIDA AV. GRAU CHIMU Nº 757 - ZARATE - SAN JUAN DE LURIGANCHO DISTRITO SAN JUAN DE LURIGANCHO PROVINCIA LIMA DEPARTAMENTO LIMA;San Juan de Lurigancho;16;910;-12.11321922;-77.00099922
116;CENTRO ODONTOLOGICO PNP ANGAMOS;AVENIDA AV ANGAMOS ESTE 833-835 DISTRITO SURQUILLO PROVINCIA LIMA DEPARTAMENTO LIMA;Surquillo;2;1020;-12.07081403;-77.02318933
117;MEDICAL;AVENIDA AV. GENERAL ALVARES DE ARENALES Nº 630 DISTRITO JESUS MARIA PROVINCIA LIMA DEPARTAMENTO LIMA;Jesus Maria;2;700;-12.1157347;-77.0377884
118;POLICLINICO PNP WALTER ROSALES LEON;CALLE CALLE LOS RUISEÑORES S/N - COMPLEJO  PNP ARAMBURU NÚMERO S/N DISTRITO SURQUILLO PROVINCIA LIMA DEPARTAMENTO LIMA;Surquillo;3;1080;-12.0463731;-77.0190228
119;SERVICIOS MÉDICOS UNMSM;AVENIDA AV GERMAN AMEZAGA Nº 375 - CIUDAD UNIVERSITARIA DISTRITO LIMA PROVINCIA LIMA DEPARTAMENTO LIMA;Cercado de Lima;11;770;-12.1042369;-77.042754
120;CENTRO DE ATENCION PRIMARIA III SURQUILLO;AVENIDA AV LOS HALCONES 414 URB LIMATAMBO AV LOS HALCONES 414 URB LIMATAMBO SURQUILLO LIMA LIMA;Surquillo;30;470;-12.0904161;-77.020628
121;POLICLINICO ALO CENTRO MEDICO;JIRÓN JIRON JUNÍN 135 JIRON JUNÍN 135 MAGDALENA DEL MAR LIMA LIMA;Magdalena del Mar;27;870;-12.0654226;-77.0700298
122;POLICLINICO I.S.A.;JIRÓN JR. GENERAL ORBEGOSO 419 INT 201 DISTRITO BREÑA PROVINCIA LIMA DEPARTAMENTO LIMA;Breña;2;650;-12.023497;-77.0516876
123;CENTRO CLINICO ZARATE;CALLE CALLE SANTA MONICA 624-628, URB. ASCARRUNZ CALLE SANTA MONICA 624-628, URB. ASCARRUNZ SAN JUAN DE LURIGANCHO LIMA LIMA;San Juan de Lurigancho;2;760;-12.0743868;-77.004605
124;BIOMEDICAL TECHNOLOGIES SOCIEDAD ANONIMA CERRADA;JIRÓN JIRON HUASCAR 1244 DISTRITO JESUS MARIA PROVINCIA LIMA DEPARTAMENTO LIMA;Jesus Maria;1;820;-12.1170501;-77.0470249
125;MEDICOS SALUD;CALLE CALLE ALBERT EINSTEIN MZ H LOTE 22, 1ER PISO - URB LA CALERA DISTRITO SURQUILLO PROVINCIA LIMA DEPARTAMENTO LIMA;Surquillo;10;330;-12.0952469;-77.0024664
126;MEDSOLUTIONS;AVENIDA AV. FAUSTINO SANCHEZ CARRION 960 (EX AV. PERSHING) - 1ER Y 2DO PISO DISTRITO MAGDALENA DEL MAR PROVINCIA LIMA DEPARTAMENTO LIMA;Magdalena del Mar;18;1120;-12.08996;-77.0593246
127;MAVIMEDIC;AVENIDA AV LAS ARTES NORTE 1014 OF 202 DISTRITO SAN BORJA PROVINCIA LIMA DEPARTAMENTO LIMA;San Borja;2;1170;-12.0814374;-76.995882
128;CENTRO MÉDICO SANTA RITA II;AVENIDA AV CANADA 3299 1ER Y 2DO PISO URB JAVIER PRADO DISTRITO SAN LUIS PROVINCIA LIMA DEPARTAMENTO LIMA;San Luis;4;350;-12.0891845;-76.9959047
129;CENTRO ODONTOLOGICO AMERICANO - JAVIER PRADO;AVENIDA AV JAVIER PRADO ESTE 1692 1ER PISO DISTRITO SAN ISIDRO PROVINCIA LIMA DEPARTAMENTO LIMA;San Isidro;8;1150;-12.0853194;-77.0087311
130;GESTION OPTIMA S.A.C.;CALLE CALLE LAS ORQUÍDEAS 2811 DISTRITO LINCE PROVINCIA LIMA DEPARTAMENTO LIMA;Lince;7;610;-12.0734497;-77.0357761
131;INSAD;AVENIDA AV. AVIACION 2058 - 2DO PISO DISTRITO LA VICTORIA PROVINCIA LIMA DEPARTAMENTO LIMA;La Victoria;8;780;-12.1004897;-77.0162899
132;CENTRO DE SALUD MILITAR DEL CUARTEL GENERAL DEL EJERCITO-SAN BORJA;AVENIDA AVENIDA BOULEVARD S/N NÚMERO S/N DISTRITO SAN BORJA PROVINCIA LIMA DEPARTAMENTO LIMA;San Borja;3;260;-12.1083451;-76.988811
133;CENTRO DE ATENCION PRIMARIA-CAP III SAN ISIDRO-ESSALUD;AVENIDA AV. PEREZ ARANIBAR 1551 DISTRITO SAN ISIDRO PROVINCIA LIMA DEPARTAMENTO LIMA;San Isidro;10;970;-12.08472162;-77.053404
134;INNOMEDIC;AVENIDA AVENIDA CANADA 1335-1339 - URBANIZACION SANTA CATALINA DISTRITO LA VICTORIA PROVINCIA LIMA DEPARTAMENTO LIMA;La Victoria;53;850;-12.0904353;-77.01004899
135;CENTRO DE ESPECIALIDADES MEDICAS PRO-VIDA;AVENIDA AV. BRASIL 3490 DISTRITO MAGDALENA DEL MAR PROVINCIA LIMA DEPARTAMENTO LIMA;Magdalena del Mar;6;340;-12.048247;-77.069999
136;CENTRO INTEGRAL MEDICO SEMEDIC;AVENIDA AV. ALFONSO UGARTE 712 CONJ. RESID. 2 DE MAYO (SECTOR 10) DISTRITO LIMA PROVINCIA LIMA DEPARTAMENTO LIMA;Cercado de Lima;1;880;-12.0946302;-77.042889
137;CIRE INTERVENCIONISTAS;JIRÓN JR. ALFONSO UGARTE 110 DISTRITO MAGDALENA DEL MAR PROVINCIA LIMA DEPARTAMENTO LIMA;Magdalena del Mar;8;1180;-12.0662671;-77.0705301
138;BOSTON CENTRO DE DIAGNOSTICO;AVENIDA AREQUIPA 242 DISTRITO LIMA PROVINCIA LIMA DEPARTAMENTO LIMA;Cercado de Lima;6;930;-12.1275;-77.0373924
139;CARDIOCLINIC SOCIEDAD CIVIL - CARDIOCLINIC SEDE MIRAFLORES;AVENIDA AV. ALFREDO BENAVIDES 2185-2187 DISTRITO MIRAFLORES PROVINCIA LIMA DEPARTAMENTO LIMA;Miraflores;10;260;-12.0707706;-77.0101
140;INSTITUTO DE IMAGENES MEDICAS;AVENIDA AV. SAN MARTIN 460 DISTRITO PUEBLO LIBRE PROVINCIA LIMA DEPARTAMENTO LIMA;Pueblo Libre;70;1200;-12.0695043;-77.0618555
141;CENTRO ODONTOLOGICO DE LA UNIVERSIDAD WIENER;AVENIDA AV AREQUIPA Nº 440-444 DISTRITO LIMA PROVINCIA LIMA DEPARTAMENTO LIMA;Cercado de Lima;8;870;-12.07159012;-77.0370015
142;SANNOE SAC;AVENIDA AV BRASIL Nº 1215 DISTRITO JESUS MARIA PROVINCIA LIMA DEPARTAMENTO LIMA;Jesus Maria;66;1010;-12.083649;-77.05053771
143;DIGESALUD;JIRÓN JR CABO GUTARRA 208 DISTRITO PUEBLO LIBRE PROVINCIA LIMA DEPARTAMENTO LIMA;Pueblo Libre;21;1170;-11.99600492;-77.062451
144;AREA DE SALUD DEL ESTABLECIMIENTO PENITENCIARIO DE LURIGANCHO;AV. EL SOL S/N;San Borja;33;800;-12.0975184;-76.99168123
145;ONCOSALUD;AVENIDA AV. GUARDIA CIVIL 545,571,585 MANZANA B5 LOTE 06-09 URBANIZACIÓN CORPAC 1ERA ZONA DISTRITO SAN BORJA PROVINCIA LIMA DEPARTAMENTO LIMA;San Borja;20;300;-12.12037186;-77.0117551
146;ISSO MEDIC;AVENIDA AVENIDA ROCA Y BOLOGNA Nº 681 - URBANIZACION LA AURORA DISTRITO MIRAFLORES PROVINCIA LIMA DEPARTAMENTO LIMA;Miraflores;30;730;-12.0904323;-77.0148421
147;GESTION TRABAJO Y SALUD SAC;AVENIDA AVENIDA LIMA Nº 220, 1ER Y 2DO PISO URBANIZACION UDIMA DISTRITO SAN MIGUEL PROVINCIA LIMA DEPARTAMENTO LIMA;San Miguel;2;680;-12.05000441;-77.0767051
148;MEDICENTRO COLMENA DE LA CLÍNICA INTERNACIONAL;AVENIDA AV. NICOLAS DE PIEROLA (EX-AV.COLMENA) N°727-733 DISTRITO LIMA PROVINCIA LIMA DEPARTAMENTO LIMA;Cercado de Lima;72;760;-12.11209144;-77.03688718
149;JOBMEDIC;AVENIDA AV. ANGAMOS ESTE NRO. 2506 INT. 102 Y 301 URB. CALERA DE LA MERCED DISTRITO SURQUILLO PROVINCIA LIMA DEPARTAMENTO LIMA;Surquillo;76;940;-12.1014751;-77.00194872
150;IBN SINA DERMATOLOGIA LASER & ESTETICA;AVENIDA AVENIDA SAN BORJA SUR 490, 1ER Y 2DO. PISO URB SAN BORJA SUR III ETAPA DISTRITO SAN BORJA PROVINCIA LIMA DEPARTAMENTO LIMA;San Borja;13;1160;-12.0895371;-77.004728
151;IMM S.A.C.;AVENIDA AV. JAVIER PRADO ESTE 1476 DISTRITO SAN ISIDRO PROVINCIA LIMA DEPARTAMENTO LIMA;San Isidro;46;990;-11.99737445;-77.0114045
152;MEDICAL ROMA;OTROS MZ. A LT 10-COOP.VIVI. LA VIÑA DISTRITO SAN JUAN DE LURIGANCHO PROVINCIA LIMA DEPARTAMENTO LIMA;San Juan de Lurigancho;7;510;-12.05829209;-77.01530076
153;POLICLINICO COIP;AVENIDA ESPAÑA NÚMERO 323 DISTRITO LIMA PROVINCIA LIMA DEPARTAMENTO LIMA;Cercado de Lima;20;660;-12.0916789;-77.03984441
154;POLICLÍNICO PNP SAN BORJA;AVENIDA LAS ARTES NORTE NÚMERO 332 DISTRITO SAN BORJA PROVINCIA LIMA DEPARTAMENTO LIMA;San Borja;21;910;-12.0867487;-77.0052521
155;MEPSO;AVENIDA AVENIDA UNIVERSITARIA 407, 1ER Y 2DO PISO URB PANDO 7MA ETAPA DISTRITO SAN MIGUEL PROVINCIA LIMA DEPARTAMENTO LIMA;San Miguel;7;290;-12.08878179;-77.0838399
156;CHECK SALUD;AVENIDA AV. CARLOS VILLARÁN Nº 381, 1ER Y 2DO PISO URB. SANTA CATALINA DISTRITO LA VICTORIA PROVINCIA LIMA DEPARTAMENTO LIMA;La Victoria;3;1190;-12.086601;-77.02096486
157;CENTRO DE ATENCION PRIMARIA III ALFREDO PIAZZA ROBERTS-GSPN I Y II-RPA-ESSALUD;CALLE CALLE LAS LILAS 223 SAN EUGENIO -LINCE DISTRITO LINCE PROVINCIA LIMA DEPARTAMENTO LIMA;Lince;2;860;-12.0845123;-77.0275266
158;POLICLINICO RISSO;AVENIDA AV. AREQUIPA 1992 Y CALLE BERNARDO ALCEDO 171-173-175 DISTRITO LINCE PROVINCIA LIMA DEPARTAMENTO LIMA;Lince;0;1170;-12.06542784;-77.0347223
159;CENTRO MEDICO ORBEGOSO;JIRÓN GRAL. LUIS JOSE ORBEGOSO N° 413 1ER PISO - 419 2DO PISO (INT. 202) Y 3ER. PISO (INT. 301 Y 302) DISTRITO BREÑA PROVINCIA LIMA DEPARTAMENTO LIMA;Breña;3;320;-12.0821785;-77.05168761
160;DENTAL TECH SAC;CALLE CALLE: MANUEL CANDAMO # 484 DISTRITO LINCE PROVINCIA LIMA DEPARTAMENTO LIMA;Lince;1;890;-12.08374531;-77.0319868
161;POLICLINICO MUNICIPAL DE LINCE;AVENIDA AV MILITAR 1966 LINCE DISTRITO LINCE PROVINCIA LIMA DEPARTAMENTO LIMA;Lince;24;270;-12.02317717;-77.0315964
162;SERVICIOS MEDICOS VALE UN PERU;JIRÓN JR. GRAN PAJATEN Nº 352 SECTOR C, URB. ZARATE DISTRITO SAN JUAN DE LURIGANCHO PROVINCIA LIMA DEPARTAMENTO LIMA;San Juan de Lurigancho;6;490;-12.0807191;-76.98610172
163;POLICLINICO SANTA RITA SEDE CENTRAL;AVENIDA AV. AGUSTIN  DE LA ROSA TORO 992, URB. JAVIER PRADO IV ETAPA NÚMERO 992 DISTRITO SAN LUIS PROVINCIA LIMA DEPARTAMENTO LIMA;San Luis;29;590;-12.0966042;-76.9937839
164;KONEXXION MEDICA;AVENIDA AVENIDA GUARDIA CIVIL 718 AVENIDA GUARDIA CIVIL 718 SAN ISIDRO LIMA LIMA;San Isidro;5;440;-12.0910398;-77.0116051
165;MEDICIS;AVENIDA AV. JAVIER PRADO OESTE #304 DISTRITO MAGDALENA DEL MAR PROVINCIA LIMA DEPARTAMENTO LIMA;Magdalena del Mar;1;470;-12.0554224;-77.06483579
166;POLICLINICO DE BREÑA;AVENIDA AV. VENEZUELA N° 1650 AV. VENEZUELA N° 1650 BREÑA LIMA LIMA;Breña;35;1060;-12.0787692;-77.0554665
167;DERMOSALUD;AVENIDA AV. MANUEL CIPRIANO DULANTO 1005-1009 DISTRITO PUEBLO LIBRE PROVINCIA LIMA DEPARTAMENTO LIMA;Pueblo Libre;4;650;-12.0852585;-77.0651341
168;RESPIRA SALUD OCUPACIONAL;AVENIDA AV. SAN EUGENIO N° 899 URB. SANTA CATALINA DISTRITO LA VICTORIA PROVINCIA LIMA DEPARTAMENTO LIMA;La Victoria;1;470;-11.96734504;-77.0170184
169;POLICLINICO SERVILAB;JIRÓN JR.RIO MOCHE MZ B LT 7 URB.JESUS OROPEZA CHONTA-CANTO GRANDE SJL DISTRITO SAN JUAN DE LURIGANCHO PROVINCIA LIMA DEPARTAMENTO LIMA;San Juan de Lurigancho;9;370;-12.1266172;-77.00317229
170;CENTRO ESTETICA FRANCO;AVENIDA AV. ROOSEVELT 6222 (EX REPÚBLICA DE PANAMÁ). SAN ANTONIO. MIRAFLORES. DISTRITO MIRAFLORES PROVINCIA LIMA DEPARTAMENTO LIMA;Miraflores;84;750;-12.07536914;-77.0182486
171;HEALTHCARE GROUP PERU SAC;AVENIDA AV. RAFAEL ESCARDO 591 URB. MARANGA DISTRITO SAN MIGUEL PROVINCIA LIMA DEPARTAMENTO LIMA;San Miguel;2;720;-12.1224303;-77.0927254
172;MEDICAL ASSISTANT;AVENIDA AV. TOMAS MARSANO N° 2147 - URB. LA AURORA DISTRITO SURQUILLO PROVINCIA LIMA DEPARTAMENTO LIMA;Surquillo;15;250;-12.0046892;-77.0052026
173;CENTRO MEDICO FESALUD;AVENIDA AV. PROCERES DE LA INDEPENDENCIA 1734 DISTRITO SAN JUAN DE LURIGANCHO PROVINCIA LIMA DEPARTAMENTO LIMA;San Juan de Lurigancho;2;270;-12.10175881;-77.006324
174;CENTRO DE EXCELENCIA EN REUMATOLOGÍA;JIRÓN JR. BENOZZO DI LESE DI SANDRO GOZZOLI NORTE 296, ESQUINA CON AV. DE LAS ARTES SUR DISTRITO SAN BORJA PROVINCIA LIMA DEPARTAMENTO LIMA;San Borja;16;810;-12.01193777;-77.00632154
175;CENTRO MEDICO OJOSALUD;AVENIDA AV. PROCERES DE LA INDEPENDENCIA 1359-1361 DISTRITO SAN JUAN DE LURIGANCHO PROVINCIA LIMA DEPARTAMENTO LIMA;San Juan de Lurigancho;11;1200;-12.0104398;-77.00252301
176;POLICLINICO TOBALMO S.A.C.;AVENIDA AVENIDA PROCERES DE LA INDEPENDENCIA Nº 1461. URB. LOS JARDINES DE SAN JUAN DISTRITO SAN JUAN DE LURIGANCHO PROVINCIA LIMA DEPARTAMENTO LIMA;San Juan de Lurigancho;9;990;-12.08420756;-77.0034367
177;PREVECON;AVENIDA AV. SAN EUGENIO 615 URB. SANTA CATALINA DISTRITO LA VICTORIA PROVINCIA LIMA DEPARTAMENTO LIMA;La Victoria;10;940;-12.0962139;-77.02035404
178;INMATER;AVENIDA AVENIDA GUARDIA CIVIL 655 DISTRITO SAN BORJA PROVINCIA LIMA DEPARTAMENTO LIMA;San Borja;5;900;-12.0181791;-77.0107674
179;CESIAMED;OTROS MZ. A, LOTE 04 URB. MANUEL SCORZA, CAMPOY DISTRITO SAN JUAN DE LURIGANCHO PROVINCIA LIMA DEPARTAMENTO LIMA;San Juan de Lurigancho;16;590;-12.0812765;-76.9671865
180;WORKER`S HEALTH;AVENIDA AV. BRASIL 2347, JESUS MARÌA DISTRITO JESUS MARIA PROVINCIA LIMA DEPARTAMENTO LIMA;Jesus Maria;5;860;-12.08091658;-77.0586003
181;INTAC;CALLE CALLE FERMIN TANGÛIS 143 / SANTA CATALINA DISTRITO LA VICTORIA PROVINCIA LIMA DEPARTAMENTO LIMA;La Victoria;10;1040;-12.0968503;-77.01201676
182;CENTRO ODONTOLOGICO AMERICANO - ESPECIALIDADES ARONA;AVENIDA JUAN DE ARONA NÚMERO 402 DISTRITO SAN ISIDRO PROVINCIA LIMA DEPARTAMENTO LIMA;San Isidro;70;1130;-12.078361;-77.0303789
183;POLICLINICO PUEBLO LIBRE;AVENIDA MANUEL CIPRIANO DULANTO NÚMERO 1112 DISTRITO PUEBLO LIBRE PROVINCIA LIMA DEPARTAMENTO LIMA;Pueblo Libre;5;760;-12.0608683;-77.0667469
184;SISOL SALUD LA VICTORIA;AVENIDA MANCO CAPAC NÚMERO 218 DISTRITO LA VICTORIA PROVINCIA LIMA DEPARTAMENTO LIMA;La Victoria;28;250;-12.0737233;-77.0297089
185;CENTRO CLÍNICO GAMARRA;AVENIDA mexico 1005 fundo matute LA VICTORIA LIMA LIMA;La Victoria;93;860;-12.0581879;-77.0189238
186;SERVILAB;JIRÓN ANTENOR ORREGO NÚMERO 1996 URBANIZACIÓN CHACRA RIOS DISTRITO LIMA PROVINCIA LIMA DEPARTAMENTO LIMA;Cercado de Lima;48;380;-12.08961042;-77.061027
187;SERVIMEDIC;JIRÓN FRANCISCO DE ZELA NÚMERO 2480 DISTRITO LINCE PROVINCIA LIMA DEPARTAMENTO LIMA;Lince;26;900;-12.08696146;-77.03923679
188;CENTRO MEDICO UROZEN;AVENIDA Javier Prado Este NÚMERO 3028 DISTRITO SAN BORJA PROVINCIA LIMA DEPARTAMENTO LIMA;San Borja;147;280;-12.0790475;-76.99331201
189;CENTRO MEDICO MAPFRE - SEDE SAN MIGUEL;CALLE CARDENAL GUEVARA 132 SAN MIGUEL LIMA LIMA;San Miguel;81;370;-12.11973034;-77.093801
190;HOLOMEDIC;PASAJE PARQUE LA INDIA NÚMERO 169 URBANIZACIÓN LOS SAUCES II DISTRITO SURQUILLO PROVINCIA LIMA DEPARTAMENTO LIMA;Surquillo;7;510;-12.0819145;-77.00206568
191;MEDCORP SALUD OCUPACIONAL;AVENIDA DU PETIT THOUARS ABEL BERGASSE NÚMERO 1542 DISTRITO LINCE PROVINCIA LIMA DEPARTAMENTO LIMA;Lince;15;1120;-12.08814169;-77.0337717
192;PREVENSA OCUPACIONAL;JIRÓN DANIEL HERNANDEZ NÚMERO 198 PISO 1 DISTRITO MAGDALENA DEL MAR PROVINCIA LIMA DEPARTAMENTO LIMA;Magdalena del Mar;247;340;-12.1117273;-77.06367574
193;MEDICINA EMPRESARIAL DE PREVENCIÓN EN SALUD OCUPACIONAL SAC;AVENIDA ANGAMOS ESTE NÚMERO 2624 URBANIZACIÓN VIPEP DISTRITO SURQUILLO PROVINCIA LIMA DEPARTAMENTO LIMA;Surquillo;39;350;-12.08631758;-76.9968294
194;POLICLINICO SAN EUGENIO;CALLE LAS LILAS NÚMERO 415 DISTRITO LINCE PROVINCIA LIMA DEPARTAMENTO LIMA;Lince;43;260;-12.05420397;-77.02620126
195;"INSTITUTO DE MEDICINA TROPICAL ""DANIEL ALCIDES CARRIÓN""  FACULTAD DE MEDICINA HUM";CALLE GERMAN AMEZAGA NÚMERO 375 DISTRITO LIMA PROVINCIA LIMA DEPARTAMENTO LIMA;Cercado de Lima;20;560;-12.0899054;-77.08678163
196;CENTRO MEDICO EPSIMEDIC;AVENIDA TRINIDAD MORAN NÚMERO 653 DISTRITO LINCE PROVINCIA LIMA DEPARTAMENTO LIMA;Lince;98;340;-12.0827847;-77.0386737
197;MEDCAM;JIRÓN HORACIO BALLON 103 PISO 2-3 NÚMERO 103 DISTRITO SAN BORJA PROVINCIA LIMA DEPARTAMENTO LIMA;San Borja;88;530;-12.11346038;-76.99712074
198;OISO;CALLE GABRIELA MISTRAL NÚMERO 216 PISO 1 DEPARTAMENTO 101 INTERIOR 201 DISTRITO SURQUILLO PROVINCIA LIMA DEPARTAMENTO LIMA;Surquillo;60;640;-12.0896007;-77.00568772
199;SERVIMEDIC S.P.S;AVENIDA GENERAL TRINIDAD MORAN NÚMERO 616 628 DISTRITO LIMA PROVINCIA LIMA DEPARTAMENTO LIMA;Cercado de Lima;70;720;-12.0905995;-77.0383385
200;NIUVIDA;CALLE Francisco Masias NÚMERO 2832 DISTRITO LINCE PROVINCIA LIMA DEPARTAMENTO LIMA;Lince;108;1040;-11.98976059;-77.0261805
201;POLICLINICO INTERNACIONAL SAN PABLO;AVENIDA JORGE BASADRE NÚMERO 101 URBANIZACIÓN APV SAN IGNACIO DISTRITO SAN JUAN DE LURIGANCHO PROVINCIA LIMA DEPARTAMENTO LIMA;San Juan de Lurigancho;98;310;-12.0954443;-77.01101459
202;POLICLÍNICO NAVAL SAN BORJA;CALLE FRAY ANGELICO 420 SAN BORJA LIMA LIMA;San Borja;49;600;-12.0794521;-76.9947088
203;UNIVERSIDAD DE SAN MARTÍN DE PORRES-  CENTRO ODONTOLÓGICO;AVENIDA SAN LUIS NÚMERO 1265 DISTRITO SAN LUIS PROVINCIA LIMA DEPARTAMENTO LIMA;San Luis;60;320;-12.0630014;-76.9982212
204;SAMA OCUPACIONAL;AVENIDA brasil NÚMERO 381 DISTRITO LIMA PROVINCIA LIMA DEPARTAMENTO LIMA;Cercado de Lima;32;750;-12.0502081;-77.0435956
205;CENTRO MEDICO JL SAN PEDRO;AVENIDA ALFONSO UGARTE NÚMERO 1378 PISO 2 DEPARTAMENTO 202 DISTRITO BREÑA PROVINCIA LIMA DEPARTAMENTO LIMA;Breña;10;290;-12.0884558;-77.053568
206;POLICLINICO BIENESTAR LABORAL;CALLE Víctor Bazul NÚMERO 119  121 URBANIZACIÓN Santa Catalina DISTRITO LA VICTORIA PROVINCIA LIMA DEPARTAMENTO LIMA;La Victoria;4;950;-12.0729189;-77.0127272
207;CENTRO DENTAL SAN JOSE;AVENIDA RAFAEL ESCARDO NÚMERO 771 URBANIZACIÓN MARANGA SEPTIMA ETAPA DISTRITO SAN MIGUEL PROVINCIA LIMA DEPARTAMENTO LIMA;San Miguel;52;1180;-12.0971829;-77.0921675
208;CLÍNICA HEALTH AND SAFETY OCCUPATIONAL SAC;AVENIDA JAVIER PRADO ESTE NÚMERO 1750 DISTRITO SAN ISIDRO PROVINCIA LIMA DEPARTAMENTO LIMA;San Isidro;14;550;-12.1213736;-77.032585
209;CENTRO ODONTOLOGICO AMERICANO - AURORA ESPECIALIDADES;AVENIDA ROOSEVELT NÚMERO 5790 PISO 3 INTERIOR 301 DISTRITO MIRAFLORES PROVINCIA LIMA DEPARTAMENTO LIMA;Miraflores;3;350;-12.0793661;-77.0185054
210;LABORAL MEDICAL SERVICES E.I.R.L;AVENIDA CANADÁ NÚMERO 3873 3877 URBANIZACIÓN VILLA JARDIN DISTRITO SAN LUIS PROVINCIA LIMA DEPARTAMENTO LIMA;San Luis;264;250;-12.0840263;-76.9916115
211;SISALUD;JIRÓN Pezet y monel NÚMERO 1838 DEPARTAMENTO 201 DISTRITO LINCE PROVINCIA LIMA DEPARTAMENTO LIMA;Lince;30;520;-12.11941074;-77.0427002
212;CENTRO ODONTOLÓGICO DE LA UNIVERSIDAD CIENTIFICA DEL SUR - DENTAL CIENTIFICA;AVENIDA Paseo de la República NÚMERO 5514 DISTRITO MIRAFLORES PROVINCIA LIMA DEPARTAMENTO LIMA;Miraflores;51;1160;-12.104759;-77.02613152
213;AXALUD CLINICA SAC;AVENIDA PASEO DE LA REPUBLICA NÚMERO 3910 DISTRITO MIRAFLORES PROVINCIA LIMA DEPARTAMENTO LIMA;Miraflores;14;940;-12.0893385;-77.027742
214;JMG SERVICIOS;CALLE JOSE DE LA TORRE UGARTE NÚMERO 144 DISTRITO LINCE PROVINCIA LIMA DEPARTAMENTO LIMA;Lince;142;430;-12.0744069;-77.0344789
215;DOKTUZ;AVENIDA La Marina NÚMERO 3297 3299 DISTRITO SAN MIGUEL PROVINCIA LIMA DEPARTAMENTO LIMA;San Miguel;32;760;-12.076169;-77.100242
216;NEUROLOGIA DIGITAL;AVENIDA General Felipe Salaverry NÚMERO 1075 URBANIZACIÓN Fundo Oyague DISTRITO JESUS MARIA PROVINCIA LIMA DEPARTAMENTO LIMA;Jesus Maria;38;490;-12.0837046;-77.0419054
217;MEDITEC ST;AVENIDA DEL AIRE 551 1 101 SANTA CATALINA A UNA CUADRA DE INDECOPI LA VICTORIA LIMA LIMA;La Victoria;36;1100;-12.088175;-77.0082323
218;CERTIMEDIC & ASOCIADOS SOCIEDAD ANONIMA CERRADA;AVENIDA ARENALES NÚMERO 2396 DISTRITO LINCE PROVINCIA LIMA DEPARTAMENTO LIMA;Lince;190;530;-11.9462982;-77.035215
219;RICARDO PALMA;AVENIDA AMPLIACION ESTE NÚMERO 496 MANZANA Q2 LOTE 15 URBANIZACIÓN PROGRAMA MARISCAL CACERES SECTOR 2 DISTRITO SAN JUAN DE LURIGANCHO PROVINCIA LIMA DEPARTAMENTO LIMA;San Juan de Lurigancho;188;600;-12.08847216;-76.9780556
220;SERVICIOS MEDICOS RAPIDOS  SAC;AVENIDA CESAR  VALLEJO NÚMERO 130 DISTRITO LINCE PROVINCIA LIMA DEPARTAMENTO LIMA;Lince;71;780;-12.12813804;-77.03428543
221;ROMANDENT EIRL;AVENIDA ALFREDO BENAVIDES NÚMERO 2921 DISTRITO MIRAFLORES PROVINCIA LIMA DEPARTAMENTO LIMA;Miraflores;130;270;-12.05660931;-77.00501851
222;CENTRO MEDICO GLOBAL SALUD;JIRÓN HUANUCO NÚMERO 1014 DISTRITO LIMA PROVINCIA LIMA DEPARTAMENTO LIMA;Cercado de Lima;204;660;-12.056082;-77.01781667
223;MULTIMEDIC S.A.C.;AVENIDA TINGO MARIA 1031, PISO 2 y 3 FRENTE AL CONDOMINIO NUEVO CERCADO LIMA BREÑA LIMA LIMA;Breña;58;490;-12.062524;-77.057576
224;SERVICIOS MÉDICOS SAN IGNACIO DE LOYOLA;CALLE Santa Martina 260 Pando et. tres a cinco cuadras de fabrica molitalia LIMA LIMA LIMA;Cercado de Lima;133;970;-11.95880708;-77.075755
225;VILLA SALUD;OTROS SV PROGRAMA CIUDAD MARISCAL CACERES MANZANA A1 LOTE 30 DISTRITO SAN JUAN DE LURIGANCHO PROVINCIA LIMA DEPARTAMENTO LIMA;San Juan de Lurigancho;250;380;-12.0898045;-76.98639727
226;MEDICHECK CENTER SAC;AVENIDA PASEO DE LA REPUBLICA NÚMERO 2768 URBANIZACIÓN SAN EUGENIO DISTRITO LINCE PROVINCIA LIMA DEPARTAMENTO LIMA;Lince;52;610;-12.10640318;-77.02399648
227;ROMANDENT;AVENIDA AUGUSTO PEREZ ARANIBAR NÚMERO 1764 DISTRITO SAN ISIDRO PROVINCIA LIMA DEPARTAMENTO LIMA;San Isidro;51;1190;-12.0899016;-77.05474935
228;SALUD VIAL;AVENIDA GENERAL TRINIDAD MORAN NÚMERO 639 DISTRITO LINCE PROVINCIA LIMA DEPARTAMENTO LIMA;Lince;7;900;-11.9731757;-77.0385654
229;VIDAFE;AVENIDA SANTA ROSA MANZANA A7 LOTE 26 URBANIZACIÓN SV. PROGRAMA CIUDAD MARISCAL CACERES SECTOR I - 2da ETAPA DISTRITO SAN JUAN DE LURIGANCHO PROVINCIA LIMA DEPARTAMENTO LIMA;San Juan de Lurigancho;38;390;-12.06433417;-76.99153504
230;POLICLINICO JAMNS;AVENIDA MANUEL ECHEANDIA 162 , Piso 2 Mz. C Lt.12 Urb. San Pablo II Etapa,  SAN LUIS LIMA LIMA;San Luis;20;1030;-12.111062;-76.996898
231;POLICLINICO CENTMED;AVENIDA PETIT THOUARS NÚMERO 4387 DISTRITO MIRAFLORES PROVINCIA LIMA DEPARTAMENTO LIMA;Miraflores;101;500;-12.09274455;-77.0315913
232;SEQUENCE REFERENCE LAB;JIRÓN TOMAS RAMSEY N?ERO 1075 DISTRITO MAGDALENA DEL MAR PROVINCIA LIMA DEPARTAMENTO LIMA;Magdalena del Mar;22;880;-12.0750295;-77.05700106
233;CENTRO ODONTOLÒGICO DENTUM;AVENIDA GENERAL GARZON 1438 2 AL FRENTE DEL BANCO SCOTIABANK JESUS MARIA LIMA LIMA;Jesus Maria;37;990;-12.08771156;-77.0435289
234;INNOMEDIC;AVENIDA JAVIER PRADO ESTE NÚMERO 2638 MANZANA K-3 LOTE 28 URBANIZACIÓN SAN BORJA I ETAPA DISTRITO SAN BORJA PROVINCIA LIMA DEPARTAMENTO LIMA;San Borja;140;340;-12.07653173;-76.99865765
235;DERMACUTIS SA.C.;AVENIDA LOS PATRIOTAS NÚMERO 353 PISO 1 URBANIZACIÓN MARANGA SEGUNDA ETAPA DISTRITO SAN MIGUEL PROVINCIA LIMA DEPARTAMENTO LIMA;San Miguel;191;860;-11.9724284;-77.09601015
236;SERVICIOS MEDICOS MARTINEZ;AVENIDA FERNANDO WIESSE PISO 2 MANZANA E LOTE 6 URBANIZACIÓN LOS ALAMOS   CANTO GRANDE DISTRITO SAN JUAN DE LURIGANCHO PROVINCIA LIMA DEPARTAMENTO LIMA;San Juan de Lurigancho;82;860;-12.0899016;-76.9971631
237;CENTRO MEDICO VIALMED;AVENIDA GENERAL TRINIDAD MORAN N?ERO 639 DISTRITO LINCE PROVINCIA LIMA DEPARTAMENTO LIMA;Lince;60;1190;-12.0849903;-77.0385654
238;CENTRO MEDICO VIALMED;AVENIDA DU PETIT THOARS ABEL BERGASSE 2048 LINCE LIMA LIMA;Lince;13;1020;-12.0744118;-77.0333552
239;CENTRO ODONTOLOGICO BOGDENT;JIRÓN SUB TNTE ALEJANDRO TIRADO 318 INT 201 URN SANTA BEATRIZ DISTRITO LIMA PROVINCIA LIMA DEPARTAMENTO LIMA;Cercado de Lima;23;920;-12.0198306;-77.0345973
240;VALU CENTRO MEDICO ESPECIALIZADO LIMA;JIRÓN HATUN COLLA 1626 1 MANGOMARCA MAKRO DE SAN JUAN DE LURIGANCHO SAN JUAN DE LURIGANCHO LIMA LIMA;San Juan de Lurigancho;102;1180;-12.09019558;-76.9853197
241;CENTRO DE ORTODONCIA Y  REHABILITACION ORAL ANDAMAYO;JIRÓN Jose Galvez N?ERO 627 PISO 2 DEPARTAMENTO 201 DISTRITO MAGDALENA DEL MAR PROVINCIA LIMA DEPARTAMENTO LIMA;Magdalena del Mar;50;740;-12.1274247;-77.07389408
242;SANNA CENTRO CLINICO MIRAFLORES;AVENIDA ALFREDO BENAVIDES 1936 MIRAFLORES LIMA LIMA;Miraflores;96;1090;-11.973545;-77.0121583
243;POLICLÍNICO SAN RICARDO;AVENIDA PRÓCERES DE LA INDEPENDENCIA 3429 1 LOS PINOS A CUADRA Y MEDIA DE LA ESTACION SAN MARTIN LINEA 1 DEL TREN FRENTE AL COLEGIO GAKUSEI SAN JUAN DE LURIGANCHO LIMA LIMA;San Juan de Lurigancho;131;250;-11.97469229;-76.99873
244;MEDICINA VIAL;AVENIDA PROCERES DE LA INDEPENDENCIA PISO 2 S/N C1 12 APV LOS PINOS SAN JUAN DE LURIGANCHO LIMA LIMA;San Juan de Lurigancho;76;780;-12.08904391;-77.00046546
245;CENTRO MEDICO NO TE PASES SOCIEDAD ANONIMA  CERRADA;AVENIDA CESAR VALLEJO N?ERO 397 PISO 1 DISTRITO LINCE PROVINCIA LIMA DEPARTAMENTO LIMA;Lince;96;580;-12.0581412;-77.03651703
246;BREVETES SALUD;JIRÓN ANTENOR ORREGO NÚMERO 1978 URBANIZACIÓN CHACRA RIOS SUR DISTRITO LIMA PROVINCIA LIMA DEPARTAMENTO LIMA;Cercado de Lima;20;700;-12.0192249;-77.060775
247;WORKER'S HEALTH SAC;CALLE SAN AURELIO NÚMERO 865 URBANIZACIÓN AZCARRUNZ DISTRITO SAN JUAN DE LURIGANCHO PROVINCIA LIMA DEPARTAMENTO LIMA;San Juan de Lurigancho;33;640;-12.0890873;-77.0005899
248;SANNA CENTRO DE SALUD OCUPACIONAL;AVENIDA JAVIER PRADO ESTE N?ERO 1417 URBANIZACI? SANTA CATALINA DISTRITO LA VICTORIA PROVINCIA LIMA DEPARTAMENTO LIMA;La Victoria;445;610;-12.0921118;-77.012621
249;POLICLINICO SANTA MARIA MAGDALENA;JIRÓN RAMON CASTILLA NÚMERO 505 URBANIZACIÓN URBEA DISTRITO MAGDALENA DEL MAR PROVINCIA LIMA DEPARTAMENTO LIMA;Magdalena del Mar;56;350;-12.09684852;-77.074313
250;CENTRO ODONTOLOGICO AMERICANO - SAN ISIDRO;AVENIDA PETIT THOUARS NÚMERO 3470 DISTRITO SAN ISIDRO PROVINCIA LIMA DEPARTAMENTO LIMA;San Isidro;40;1110;-12.118937;-77.03205816
251;ODONTOPLUS;AVENIDA JOSE PARDO NÚMERO 182 PISO 4 DEPARTAMENTO 406 DISTRITO MIRAFLORES PROVINCIA LIMA DEPARTAMENTO LIMA;Miraflores;8;760;-12.0502081;-77.0299731
252;POLICLINICO MEDICARRERA;AVENIDA NACIONES UNIDAS 1759 Mz. C Lt. 25 Pueblo Joven Talladores de la M.L.M. - Chacra Ríos LIMA LIMA LIMA;Cercado de Lima;38;1050;-12.06536227;-77.053568
253;NOVAMEDIC & ASOCIADOS;JIRÓN FRANCISCO DE ORELLANA N?ERO 198 PISO 1 DISTRITO BREÑA PROVINCIA LIMA DEPARTAMENTO LIMA;Breña;267;410;-12.05428397;-77.05975569
254;VITAL SCIENTIFIC MEDICINE;AVENIDA NACIONES UNIDAS N?ERO 1741 MANZANA C LOTE 27 URBANIZACI? CHACRA RIOS DISTRITO LIMA PROVINCIA LIMA DEPARTAMENTO LIMA;Cercado de Lima;127;960;-12.048208;-77.06151924
255;POLICLINICO  ARTHRO MEDS;JIRÓN SANCHEZ PINILLOS N?ERO 188 DISTRITO LIMA PROVINCIA LIMA DEPARTAMENTO LIMA;Cercado de Lima;132;1140;-12.0934802;-77.043831
256;CM BLAU;AVENIDA FAUSTINO SANCHEZ CARRION 230 A ESPALDA DEL HOTEL MELIA SAN ISIDRO LIMA LIMA;San Isidro;288;820;-12.08032745;-77.0521534
257;MEDICENTRAL;JIRÓN EMILIO ALTHAUS NÚMERO 580 PISO 1 DISTRITO LINCE PROVINCIA LIMA DEPARTAMENTO LIMA;Lince;31;1070;-12.0752611;-77.03116699
258;GRUPO HEALTH CORP.;AVENIDA CUBA NRO. 987 - 999 PISO 7 DISTRITO JESUS MARIA PROVINCIA LIMA DEPARTAMENTO LIMA;Jesus Maria;50;310;-12.07498311;-77.0449201
259;POLICLINICO ESCULAPIO;JIRÓN HUAMANGA 1648 PISO 1 URBANIZACION MATUTE DISTRITO LA VICTORIA PROVINCIA LIMA DEPARTAMENTO LIMA;La Victoria;14;1200;-12.0582318;-77.01841748
260;GRUPO QUITO SAC;AVENIDA GRAU 844 PISO 01 DISTRITO LA VICTORIA PROVINCIA LIMA DEPARTAMENTO LIMA;La Victoria;14;710;-12.0762951;-77.0214423
261;CENTRO ODONTOLOGICO INTEGRAL;JIRÓN SARGENTO ENRIQUE VILLAR 188 SANTA BEATRIZ AVENIDA AREQUIPA CUADRA 12 LIMA LIMA LIMA;Cercado de Lima;8;1200;-12.00585649;-77.0329681
262;POLICLÍNICO  VALE UN PERÚ;AVENIDA Jardines Este NÚMERO S/N DISTRITO SAN JUAN DE LURIGANCHO PROVINCIA LIMA DEPARTAMENTO LIMA;San Juan de Lurigancho;40;440;-12.071416;-77.00161344
263;CENTRO DE SALUD MENTAL COMUNITARIO LA VICTORIA;JIRÓN ANTONIO BAZO CDRA. 12 S/N CRUCE DE JIRÓN ANTONIO BAZO Y JIRÓN BÉLGICA LA VICTORIA LIMA LIMA;La Victoria;184;700;-12.01734472;-77.01337496
264;CENTRO DE SALUD MENTAL COMUNITARIO JAVIER MARIATEGUI CHIAPPE;AVENIDA lurigancho S/N 1 1 1 b 9 azcarrunz alto a espalda del puesto de salud azcarrunz alto SAN JUAN DE LURIGANCHO LIMA LIMA;San Juan de Lurigancho;149;490;-12.0027539;-77.00097776
265;CENTRO DE SALUD MENTAL COMUNITARIO NUEVO PERU;CALLE MZ E LOTE 01 PUEBLO JOVEN NUEVO PERU E 01 MZ E LOTE 01 PUEBLO JOVEN NUEVO PERU ENTRE LA HUACA DE CANTO CHICO Y LA IGLESIA SAN PABLO Y AL FRENTE DEL ESTADIO CANTO CHICO SAN JUAN DE LURIGANCHO LIMA LIMA;San Juan de Lurigancho;130;590;-12.05950184;-77.0177604
266;POLICLINICO PARROQUIAL SAN JOSE MARELLO;AVENIDA NICOLAS AYLLON S/N, CUADRA 4, ESQUINA CON AVENIDA 28 DE JULIO, URBANIZACION MANZANILLA, CERCADO DE LIMA, SANTUARIO SAN JOSE EL JUSTO URBANIZACIÓN MANZANILLA DISTRITO LIMA PROVINCIA LIMA DEPARTAMENTO LIMA;Cercado de Lima;266;270;-11.96859834;-77.00829151
267;CALY SALUD S.A.C.;AVENIDA San Matín 124 Mz. CL-1 Lote 26 de la Urb. Unidad 6 de Canto Grande 2do piso SAN JUAN DE LURIGANCHO LIMA LIMA;San Juan de Lurigancho;37;510;-12.1016013;-77.00303099
268;WORKER´S HEALTH S.A.C.;AVENIDA FRANCESCO REDI NÚMERO 100 PISO 1 DISTRITO SAN BORJA PROVINCIA LIMA DEPARTAMENTO LIMA;San Borja;34;860;-12.0803858;-77.0044691
269;CALA CENTER SAC;AVENIDA CAYETANO HEREDIA NÚMERO 925 DISTRITO JESUS MARIA PROVINCIA LIMA DEPARTAMENTO LIMA;Jesus Maria;280;1150;-12.02552331;-77.0512322
270;MIRANDO SALUD S.R.L.;AVENIDA GRAN CHIMU N?ERO 739 PISO 2 DISTRITO SAN JUAN DE LURIGANCHO PROVINCIA LIMA DEPARTAMENTO LIMA;San Juan de Lurigancho;37;1160;-11.9429232;-77.00127355
271;MEDEX MVR & ASOCIADOS;AVENIDA GRAN CHIMU NÚMERO 438 PISO 2 URBANIZACIÓN ZARATE DISTRITO SAN JUAN DE LURIGANCHO PROVINCIA LIMA DEPARTAMENTO LIMA;San Juan de Lurigancho;5;650;-12.0517156;-77.0066159
272;SERVI MEDIC F& V EIRL;AVENIDA TINGO MARIA 447 PISOS 1, MEZZANINE, 2 Y 3 DISTRITO BREÑA PROVINCIA LIMA DEPARTAMENTO LIMA;Breña;24;760;-12.0879581;-77.0548161
273;CENTROMEDIC SAC;AVENIDA JAVIER PRADO ESTE NÚMERO 2456 MANZANA J -3 LOTE 28 URBANIZACIÓN SAN BORJA I ETAPA DISTRITO SAN BORJA PROVINCIA LIMA DEPARTAMENTO LIMA;San Borja;95;440;-12.1061663;-77.000558
274;CPETMED;AVENIDA PETIT THOUARS NÚMERO 4377 URBANIZACIÓN BARBONCITOS DISTRITO MIRAFLORES PROVINCIA LIMA DEPARTAMENTO LIMA;Miraflores;73;1120;-12.04989948;-77.0298417
275;CENTRO MÉDICO GILBERTO MOREY;AVENIDA MARISCAL OSCAR R. BENAVIDES NÚMERO 2521 DISTRITO LIMA PROVINCIA LIMA DEPARTAMENTO LIMA;Cercado de Lima;94;480;-12.0556519;-77.07447699
276;CENTRO DE SALUD MENTAL COMUNITARIO UNIVERSITARIO SAN MARCOS;JIRÓN GERMAN AMEZAGA 375 Al lado de la clinica universitaria UNMSM LIMA LIMA LIMA;Cercado de Lima;59;990;-12.06901602;-77.08246864
277;CONSULTORIOS MEDICOS SORENA;JIRÓN NAZCA NÚMERO 354 PISO 1 DISTRITO JESUS MARIA PROVINCIA LIMA DEPARTAMENTO LIMA;Jesus Maria;16;980;-12.082006;-77.04498208
278;CENTRO MEDICO PPST;AVENIDA DE LA MARINA 853A, segundo y tercer piso NÚMERO 2 PISO 2 DISTRITO PUEBLO LIBRE PROVINCIA LIMA DEPARTAMENTO LIMA;Pueblo Libre;20;330;-12.12095987;-77.070765
279;DENTAL PROCARE;CALLE ALCANFORES NÚMERO 142 INTERIOR 303 URBANIZACIÓN SCHELL DISTRITO MIRAFLORES PROVINCIA LIMA DEPARTAMENTO LIMA;Miraflores;377;650;-12.05812805;-77.02780685
280;CALA CENTER SAC;JIRÓN ANTENOR ORREGO NÚMERO 1954 URBANIZACIÓN URB CHACRA RIOS SUR DISTRITO LIMA PROVINCIA LIMA DEPARTAMENTO LIMA;Cercado de Lima;88;330;-11.940543;-77.06061936
281;SEDESA CFRM Y CCCB E.I.R.L;JIRÓN MARCELO MANZANA E9 LOTE 10 URBANIZACIÓN SU SANTIDAD JUAN PABLO II DISTRITO SAN JUAN DE LURIGANCHO PROVINCIA LIMA DEPARTAMENTO LIMA;San Juan de Lurigancho;43;760;-12.0894566;-76.9952672
282;POLICLINICO MULTISALUD;AVENIDA GENERAL TRINIDAD MORAN NÚMERO 231 DISTRITO LINCE PROVINCIA LIMA DEPARTAMENTO LIMA;Lince;42;610;-12.0905342;-77.0353322
283;DENTAL ALVAREZ;CALLE CINCO NÚMERO 111 PISO 2 DEPARTAMENTO 203 URBANIZACIÓN CORPAC DISTRITO SAN ISIDRO PROVINCIA LIMA DEPARTAMENTO LIMA;San Isidro;77;590;-12.10093757;-77.0176012
284;DENTISTAS PERUANOS;CALLE Carlos Acosta NÚMERO 167 DISTRITO SAN ISIDRO PROVINCIA LIMA DEPARTAMENTO LIMA;San Isidro;64;550;-12.095905;-77.03123805
285;INTEGRAMEDICA;AVENIDA Guardia Civil NÚMERO 664 URBANIZACIÓN Corpac DISTRITO SAN ISIDRO PROVINCIA LIMA DEPARTAMENTO LIMA;San Isidro;18;610;-12.0952651;-77.011262
286;DOKTUZ;AVENIDA GUARDIA CIVIL NÚMERO 917 PISO 1 URBANIZACIÓN CORPAC DISTRITO SAN ISIDRO PROVINCIA LIMA DEPARTAMENTO LIMA;San Isidro;35;1180;-12.05634307;-77.0400804
287;SAN AGUSTIN MEDICAL;AVENIDA TINGO MARIA NÚMERO 1054 DISTRITO LIMA PROVINCIA LIMA DEPARTAMENTO LIMA;Cercado de Lima;14;590;-12.1285432;-77.05791033
288;AURA MEDIC SAC;AVENIDA ALFREDO BENAVIDES NÚMERO 2848 DISTRITO MIRAFLORES PROVINCIA LIMA DEPARTAMENTO LIMA;Miraflores;16;490;-12.08746354;-77.0045542
289;ALTAMIRANO NEFROLOGOS ASOCIADOS;AVENIDA SANTA CATALINA NÚMERO 649 URBANIZACIÓN SANTA CATALINA DISTRITO LA VICTORIA PROVINCIA LIMA DEPARTAMENTO LIMA;La Victoria;168;1170;-12.0875997;-77.01864535
290;SEYSO;AVENIDA CESAR VALLEJO NÚMERO 1176 DISTRITO LINCE PROVINCIA LIMA DEPARTAMENTO LIMA;Lince;26;530;-12.04905784;-77.0432986
291;SISOL SALUD MIRONES;AVENIDA Colonial NÚMERO 2001 DISTRITO LIMA PROVINCIA LIMA DEPARTAMENTO LIMA;Cercado de Lima;266;800;-12.0972247;-77.06740059
292;PROYECTOS CLÍNICOS;AVENIDA ANTONIO MIROQUESADA (EX JUAN DE ALIAGA) N° 291,  MAGDALENA DEL MAR LIMA LIMA;Magdalena del Mar;244;640;-12.1285497;-77.0598842
293;ANANDAMIDA CENTRO MEDICO;AVENIDA ALFREDO BENAVIDES NÚMERO 2854 DISTRITO MIRAFLORES PROVINCIA LIMA DEPARTAMENTO LIMA;Miraflores;45;820;-12.1167933;-77.0045105
294;CENTRO MEDICO CALMA Y SALUD;CALLE Enrique Palacios NÚMERO 588 DISTRITO MIRAFLORES PROVINCIA LIMA DEPARTAMENTO LIMA;Miraflores;205;290;-11.94372326;-77.0344749
295;POLICLINICO CAVERO;OTROS 1RA ETAPA GRUPO 2 MZ I LT26  AAHH CRUZ DE MOTUPE PISO 1 MANZANA I LOTE 26 URBANIZACIÓN CRUZ DE MOTUPE DISTRITO SAN JUAN DE LURIGANCHO PROVINCIA LIMA DEPARTAMENTO LIMA;San Juan de Lurigancho;48;730;-12.1289499;-76.97638209
296;IPHCI SAC;AVENIDA REPUBLICA DE PANAMA 6382 SAN ANTONIO FRENTE AL HOSPITAL CASIMIRO ULLOA MIRAFLORES LIMA LIMA;Miraflores;195;430;-12.0014816;-77.0182103
297;SAN FERNANDO;AVENIDA SANTA ROSA DE LIMA   1731 B URBANIZACIÓN APV INCA MANCO CAPAC I ETAPA DISTRITO SAN JUAN DE LURIGANCHO PROVINCIA LIMA DEPARTAMENTO LIMA;San Juan de Lurigancho;518;1120;-12.0903985;-76.9997694
298;GRUPO MEDICHECK;AVENIDA PASEO DE LA REPUBLICA NÚMERO 2768 URBANIZACIÓN SAN EUGENIO DISTRITO LINCE PROVINCIA LIMA DEPARTAMENTO LIMA;Lince;14;510;-12.0880681;-77.0237899
299;POLICLINICO JJ SALUD - LINCE;JIRÓN PEDRO CONDE NÚMERO 232 PISO 1 INTERIOR 101 DISTRITO LINCE PROVINCIA LIMA DEPARTAMENTO LIMA;Lince;164;480;-12.1068063;-77.0334668
300;CLINICA RESOTEM PERU SAC;AVENIDA PETIT THOUARS NÚMERO 4422 DISTRITO MIRAFLORES PROVINCIA LIMA DEPARTAMENTO LIMA;Miraflores;76;310;-12.03569234;-77.0299869
301;AUTOVIAS SEGURAS S.A.C.;AVENIDA 9 DE OCTUBRE NÚMERO 459 URBANIZACIÓN 3 COMPUERTAS DISTRITO SAN JUAN DE LURIGANCHO PROVINCIA LIMA DEPARTAMENTO LIMA;San Juan de Lurigancho;30;1030;-12.02471024;-77.01308794
302;MEDIC CENTER PERÚ;AVENIDA PRINCIPAL MZ. B LT. 01, ASOCIACIÓN VIVIENDA LOS ALAMOS CAMPOY SAN JUAN DE LURIGANCHO LIMA LIMA;San Juan de Lurigancho;3;570;-12.0777198;-76.96863703
303;SERVIMEDIC;AVENIDA CIPRIANO DULANTO NÚMERO 1999 DISTRITO PUEBLO LIBRE PROVINCIA LIMA DEPARTAMENTO LIMA;Pueblo Libre;42;560;-12.0031583;-77.0694696
304;POLICLINICO TU SALUD;AVENIDA LAS FLORES DE PRIMAVERA NÚMERO 1565 DISTRITO SAN JUAN DE LURIGANCHO PROVINCIA LIMA DEPARTAMENTO LIMA;San Juan de Lurigancho;45;740;-12.1120485;-77.012739
305;GAMMA MEDICA SERVICIOS MEDICOS;AVENIDA ANGAMOS 2536-2540 DISTRITO SURQUILLO PROVINCIA LIMA DEPARTAMENTO LIMA;Surquillo;45;1170;-12.0885893;-77.0014753
306;MEDICENTRO CRISTO REDENTOR;CALLE VICTOR BAZUL NÚMERO 112 DISTRITO LA VICTORIA PROVINCIA LIMA DEPARTAMENTO LIMA;La Victoria;17;900;-12.0494931;-77.0128483
307;MEDCOR S.A.C.;AVENIDA OSCAR RAUL BENAVIDES 2590 1 AVENIDA COLONIAL LIMA LIMA LIMA;Cercado de Lima;2;480;-12.085532;-77.0760259
308;VIALAB;JIRÓN RISSO NÚMERO 235 PISO 1 DISTRITO LINCE PROVINCIA LIMA DEPARTAMENTO LIMA;Lince;18;1060;-12.0654419;-77.0339085
309;CLINICA JESUS MARIA;AVENIDA 28 DE JULIO N° 100 NÚMERO 100 DISTRITO JESUS MARIA PROVINCIA LIMA DEPARTAMENTO LIMA;Jesus Maria;48;1090;-12.0771005;-77.04517
310;MEDI SALUD SUR;AVENIDA SAN JUAN NÚMERO 233 PISO 3 URBANIZACIÓN AGRUPACION ESTHER DISTRITO SAN LUIS PROVINCIA LIMA DEPARTAMENTO LIMA;San Luis;33;1100;-12.0801305;-77.0091305
311;RED SALUD OCUPACIONAL SAN LUIS;AVENIDA SAN LUIS NÚMERO 1323 PISO 1 DISTRITO SAN LUIS PROVINCIA LIMA DEPARTAMENTO LIMA;San Luis;49;1060;-12.081202;-76.9980286
312;CENTRO MÉDICO PREVENCIÓN & SALUD;AVENIDA MILITAR NÚMERO 1707 DISTRITO LINCE PROVINCIA LIMA DEPARTAMENTO LIMA;Lince;30;590;-12.05248447;-77.031735
313;VITAL SALUD;AVENIDA AURELIO GARCIA GARCIA 1265 URB. LOS CIPRESES LIMA LIMA LIMA;Cercado de Lima;102;730;-12.08814169;-77.07409324
314;MEDICAL CENTER;AVENIDA ARENALES 2390 LINCE LIMA LIMA;Lince;50;890;-12.08673328;-77.03520409
315;CEM SANTA CATALINA;CALLE OSWALDO HERCELLES NÚMERO 340 URBANIZACIÓN SANTA CATALINA DISTRITO LA VICTORIA PROVINCIA LIMA DEPARTAMENTO LIMA;La Victoria;48;970;-11.94358381;-77.02217258
316;MEDISALUD;OTROS MZ H 4 LOTE19 D  PROGRAMA CIUDAD MARISCAL CACERES SECTOR III 1ER Y 2DO PISO DISTRITO SAN JUAN DE LURIGANCHO PROVINCIA LIMA DEPARTAMENTO LIMA;San Juan de Lurigancho;78;320;-12.0038187;-76.9824559
317;POLICLINICO POLICIAL ZARATE;AVENIDA LAS FLORES DE PRIMAVERA NÚMERO 1548 URBANIZACIÓN SAN HILARION DISTRITO SAN JUAN DE LURIGANCHO PROVINCIA LIMA DEPARTAMENTO LIMA;San Juan de Lurigancho;205;430;-12.0075632;-77.0120145
318;CENTRO ODONTOLOGICO AMERICANO - LOS JARDINES;AVENIDA LOS JARDINES OESTE NÚMERO 498 MANZANA D LOTE 11 URBANIZACIÓN SAN HILARION DISTRITO SAN JUAN DE LURIGANCHO PROVINCIA LIMA DEPARTAMENTO LIMA;San Juan de Lurigancho;194;430;-12.1086589;-77.0106132
319;CENTROS DE BIENESTAR AUNA;CALLE Independencia NÚMERO 1055 DISTRITO MIRAFLORES PROVINCIA LIMA DEPARTAMENTO LIMA;Miraflores;45;810;-12.1139338;-77.0326898
320;POLICLINICO SERVIMOVIL;AVENIDA ANGAMOS ESTE NÚMERO 179 DISTRITO MIRAFLORES PROVINCIA LIMA DEPARTAMENTO LIMA;Miraflores;378;850;-12.0670903;-77.0307924
321;IMED PERU S.A.C;JIRÓN Manuel Nicolas Corpancho NÚMERO 212 INTERIOR 103 MANZANA 03 LOTE 08 URBANIZACIÓN SANTA BEATRIZ DISTRITO LIMA PROVINCIA LIMA DEPARTAMENTO LIMA;Cercado de Lima;91;1120;-12.0908341;-77.0366854
322;PREVENTIVA PERU;AVENIDA JAVIER PRADO OESTE NÚMERO 339 DISTRITO MAGDALENA DEL MAR PROVINCIA LIMA DEPARTAMENTO LIMA;Magdalena del Mar;62;690;-12.08139069;-77.0642827
323;INSTITUTO DE SALUD OCUPACIONAL EIRL - INSAD;AVENIDA CANADA NÚMERO 660 PISO 1 URBANIZACIÓN SANTA CATALINA DISTRITO LA VICTORIA PROVINCIA LIMA DEPARTAMENTO LIMA;La Victoria;118;820;-12.0663367;-77.02013007
324;CENTRO DE SALUD MENTAL COMUNITARIO KUYANAKUSUN;PARQUE HERNAN VELARDE 52 1 1 SANTA BEATRIZ ALTURA DE LA CUADRA 2 DE LA AVENIDA PETIT THOUARS LIMA LIMA LIMA;Cercado de Lima;684;1100;-12.0883618;-77.03560374
325;SOMEDIC;AVENIDA ESTEBAN CAMPODONICO N° 672, 1° Y 2° PISO, DISTRITO LA VICTORIA PROVINCIA LIMA DEPARTAMENTO LIMA;La Victoria;135;880;-12.0282613;-77.0207528
326;POLICLINICO VALLE SAGRADO;JIRÓN WIRACOCHA NÚMERO 205 PISO 1 URBANIZACIÓN ZÁRATE DISTRITO SAN JUAN DE LURIGANCHO PROVINCIA LIMA DEPARTAMENTO LIMA;San Juan de Lurigancho;233;740;-12.0861577;-77.0072394
327;GRUPO DE SALUD Y SEGURIDAD CISS S.A.C.;AVENIDA SANTA CATALINA NÚMERO 555 PISO 1 DISTRITO LA VICTORIA PROVINCIA LIMA DEPARTAMENTO LIMA;La Victoria;382;890;-12.0870363;-77.0187987
328;CONSULTORIOS EXTERNOS DE LA CLÍNICA MÉDICA CAYETANO HEREDIA;JIRON GUISSE, MARTÍN ALMTE NUMERO 2171 DISTRITO LINCE PROVINCIA LIMA DEPARTAMENTO LIMA;Lince;80;670;-12.0502081;-77.0385066
329;POLICLÍNICO CIBER MÉDIC SAC;AVENIDA La Marina 2915 Interior 201, Urb. Maranga 2da Etapa SAN MIGUEL LIMA LIMA;San Miguel;30;1130;-12.0903172;-77.053568
330;CENTRO MEDICO MEDILABORIS;AVENIDA PERSHING (EX FAUSTINO SÁCHEZ CARRIÓN) NÚMERO 758 DISTRITO MAGDALENA DEL MAR PROVINCIA LIMA DEPARTAMENTO LIMA;Magdalena del Mar;53;1080;-12.0862974;-77.0577295
331;SAN JUDAS MEDICAL;AVENIDA JAVIER PRADO ESTE NÚMERO 3536 PISO 1 MANZANA E LOTE 05 URBANIZACIÓN JACARANDA-2DA ETAPA DISTRITO SAN BORJA PROVINCIA LIMA DEPARTAMENTO LIMA;San Borja;58;530;-12.1203592;-76.9879807
332;KABI CARE;CALLE Libertad 176 2 201 MIRAFLORES LIMA LIMA;Miraflores;160;690;-12.1300564;-77.032846
333;SALUD MEDIC;AVENIDA 28 DE JULIO 1038 A UNA CUADRA DE AV PASEO DE LA REPUBLICA MIRAFLORES LIMA LIMA;Miraflores;409;490;-12.06658309;-77.0220553
334;GAMARRA SALUD;JIRÓN sebastian barranca NÚMERO 1498 URBANIZACIÓN san pablo DISTRITO LA VICTORIA PROVINCIA LIMA DEPARTAMENTO LIMA;La Victoria;126;1160;-12.09049297;-77.01472595
335;SUREJOB;AVENIDA MILITAR NÚMERO 2725 DISTRITO LINCE PROVINCIA LIMA DEPARTAMENTO LIMA;Lince;210;490;-12.09449388;-77.0303788
336;APTUS SALUD EMPRESARIAL;AVENIDA JAVIER PRADO OESTE NÚMERO 2340/2342 DISTRITO MAGDALENA DEL MAR PROVINCIA LIMA DEPARTAMENTO LIMA;Magdalena del Mar;155;1140;-12.087959;-77.05542258
337;BIOLAQ;AVENIDA JAVIER PRADO ESTE 2492 MZ. J-3 LT.31 SAN BORJA I ETAPA/ PRIMERA SECCIÒN SAN BORJA LIMA LIMA;San Borja;29;590;-12.12784696;-77.000165
338;ROMANDENT;AVENIDA ALFREDO BENAVIDES NÚMERO 2921 DISTRITO MIRAFLORES PROVINCIA LIMA DEPARTAMENTO LIMA;Miraflores;209;1200;-12.0248327;-77.00721658
339;POLICLINICO LAS LOMAS;AVENIDA LAS LOMAS NÚMERO 305 PISO 1 MANZANA P-5 LOTE 27 URBANIZACIÓN ZARATE DISTRITO SAN JUAN DE LURIGANCHO PROVINCIA LIMA DEPARTAMENTO LIMA;San Juan de Lurigancho;59;410;-11.9632024;-76.9915574
340;POLICLINICO S&L SANTA ROSA;AVENIDA PROCERES DE LA INDEPENDENCIA NÚMERO 4124 MANZANA f-1 LOTE 10 DISTRITO SAN JUAN DE LURIGANCHO PROVINCIA LIMA DEPARTAMENTO LIMA;San Juan de Lurigancho;38;700;-12.0651907;-76.989507
341;POLICLINICO MUNICIPAL VICTORIANO;JIRÓN PROLONGACIÓN MARISCAL LA MAR NÚMERO 641 URBANIZACIÓN EL PORVENIR DISTRITO LA VICTORIA PROVINCIA LIMA DEPARTAMENTO LIMA;La Victoria;48;820;-12.0880833;-77.0192363
342;ENDOSALUD;AVENIDA JAVIER PRADO ESTE 2422   EST  1    2 MANZANA J-3 LOTE 26 URBANIZACIÓN SAN BORJA I ETAPA DISTRITO SAN BORJA PROVINCIA LIMA DEPARTAMENTO LIMA;San Borja;67;1010;-12.0233826;-77.0009298
343;POLICLINICO VALE UN PERU;JIRÓN GRAN PAJATEN NÚMERO 352 PISO 1 MANZANA K-7 LOTE 18 URBANIZACIÓN ZARATE DISTRITO SAN JUAN DE LURIGANCHO PROVINCIA LIMA DEPARTAMENTO LIMA;San Juan de Lurigancho;126;1100;-12.05451087;-76.9860492
344;POLICLINICO VICTOR MANUEL LAOS;AVENIDA NACIONES UNIDAS N° 1759. MANZANA C, LOTE 25, PUEBLO JOVEN TALLADORES DE LA M.L.M.-CHACRA RÍOS LIMA LIMA LIMA;Cercado de Lima;456;680;-12.0904161;-77.06160507
345;POLICLINICO SANTA TERESA DE JESUS;JIRÓN MARISCAL CASTILLA NÚMERO 549A DISTRITO MAGDALENA DEL MAR PROVINCIA LIMA DEPARTAMENTO LIMA;Magdalena del Mar;36;1040;-12.0901871;-77.0700298
346;SALUD LAB;AVENIDA JAVIER PRADO ESTE NÚMERO 1224 PISO 1 INTERIOR 101 URBANIZACIÓN CORPAC DISTRITO SAN ISIDRO PROVINCIA LIMA DEPARTAMENTO LIMA;San Isidro;79;1200;-12.08746731;-77.0155362
347;CENTRO MEDICO SANTA CRUZ;AVENIDA JAVIER PRADO ESTE NÚMERO 2756 /2762 URBANIZACIÓN SAN BORJA, TERCER SECTOR, PRIMERA ETAPA DISTRITO SAN BORJA PROVINCIA LIMA DEPARTAMENTO LIMA;San Borja;198;860;-12.0879606;-76.99703704
348;ADMEDIC SOLUCIONES S.A.C.;AVENIDA JAVIER PRADO ESTE N° 2480, OF. 101, MZ. J-3, LT. 30, URB. SAN BORJA I ETAPA/ 1ER SECTOR SAN BORJA LIMA LIMA;San Borja;34;690;-12.1213736;-77.0002083
349;CENTRO ODONTOLOGICO SELIDENT;AVENIDA ROOSEVELT NÚMERO 5790 PISO 3 INTERIOR 303 DISTRITO MIRAFLORES PROVINCIA LIMA DEPARTAMENTO LIMA;Miraflores;195;640;-12.0825241;-77.0185054
350;ROCASALUD SAC;JIRÓN RICARDO TIZON Y BUENO NÚMERO 150 PISO 1 DISTRITO JESUS MARIA PROVINCIA LIMA DEPARTAMENTO LIMA;Jesus Maria;110;1100;-12.1216291;-77.0506498
351;CENTRO ODONTOLOGICO SELIDENT;AVENIDA ROOSEVELT NÚMERO 5806 URBANIZACIÓN LA AURORA DISTRITO MIRAFLORES PROVINCIA LIMA DEPARTAMENTO LIMA;Miraflores;30;260;-12.0631836;-77.0184048
352;S&M SALUD OCUPACIONAL;AVENIDA VENEZUELA NÚMERO 6011 URBANIZACIÓN CAPITAN DE NAVIO LUIS GERMAN ASTETE DISTRITO SAN MIGUEL PROVINCIA LIMA DEPARTAMENTO LIMA;San Miguel;5;1160;-11.9931993;-77.101071
353;SAN SEBASTIAN CLINIC;AVENIDA AV.PROCERES DE LA INDEPENDENCIA 2302 NÚMERO 2302 DISTRITO SAN JUAN DE LURIGANCHO PROVINCIA LIMA DEPARTAMENTO LIMA;San Juan de Lurigancho;72;560;-11.99832813;-77.0104922
354;POLICLINICO EL SOL;OTROS SV MZ. R' LOTE 18 APV SAN HILARION DISTRITO SAN JUAN DE LURIGANCHO PROVINCIA LIMA DEPARTAMENTO LIMA;San Juan de Lurigancho;59;400;-12.08939798;-77.01235837
355;MEDVIDA SALUD OCUPACIONAL;AVENIDA JAVIER PRADO ESTE NÚMERO 1530 URBANIZACIÓN CORPAC DISTRITO SAN ISIDRO PROVINCIA LIMA DEPARTAMENTO LIMA;San Isidro;28;490;-12.11806926;-77.01067529
356;POLICLÍNICO MIRAFLORES BARCELONA SALUD;AVENIDA AREQUIPA NÚMERO 5225 DISTRITO LIMA PROVINCIA LIMA DEPARTAMENTO LIMA;Cercado de Lima;2;460;-12.0719253;-77.02897346
357;UNIDAD DE ENSAYOS CLINICOS USMP;AVENIDA SIMON BOLIVAR NÚMERO 937 URBANIZACIÓN PUEBLO LIBRE DISTRITO PUEBLO LIBRE PROVINCIA LIMA DEPARTAMENTO LIMA;Pueblo Libre;78;1170;-12.0843035;-77.0622253
358;POLICLINICO JULIO C. TELLO;JIRÓN FRANCISCO DE ZELA Nº1901 DISTRITO LINCE PROVINCIA LIMA DEPARTAMENTO LIMA;Lince;159;250;-12.0733768;-77.0398955
359;POLICLINICO ALERTA MEDICA ESPECIALIDADES;JIRÓN MARISCAL TORIBIO LUZURIAGA NÚMERO 102 DISTRITO JESUS MARIA PROVINCIA LIMA DEPARTAMENTO LIMA;Jesus Maria;98;680;-12.10288692;-77.0520459
360;GASTRO VIDA;AVENIDA ANDRES ARAMBURU NÚMERO 343 PISO 2 MANZANA B LOTE 5 URBANIZACIÓN MALIBU DISTRITO SAN ISIDRO PROVINCIA LIMA DEPARTAMENTO LIMA;San Isidro;78;660;-11.95861684;-77.02857758
361;CENTRO MEDICO PAU & MI E.I.R.L.;OTROS MZ O-6 LT 30 PROGRAMA CIUDAD MARISCAL CACERES SECTOR I 1ERA ETAPA 1ER Y 2DO PISO PISO 1 MANZANA O-6 LOTE 30 URBANIZACIÓN PROGRAMA CIUDAD MARISCAL CACERES SECTOR I 1ERA ETAPA DISTRITO SAN JUAN DE LURIGANCHO PROVINCIA LIMA DEPARTAMENTO LIMA;San Juan de Lurigancho;167;560;-12.0162565;-76.98753587
362;POLICLINICO SOLIDARIO GUIZADO;AVENIDA AV. LAS FLORES DE PRIMAVERA NRO. 785 NÚMERO 785 DISTRITO SAN JUAN DE LURIGANCHO PROVINCIA LIMA DEPARTAMENTO LIMA;San Juan de Lurigancho;30;1040;-12.0654799;-77.012137
363;HOLADOC;AVENIDA 28 DE JULIO NÚMERO 100 DISTRITO JESUS MARIA PROVINCIA LIMA DEPARTAMENTO LIMA;Jesus Maria;267;730;-12.0645313;-77.0452383
364;POLICLINICO DON BOSCO;JIRÓN RESTAURACION NÚMERO 282 DISTRITO BREÑA PROVINCIA LIMA DEPARTAMENTO LIMA;Breña;25;860;-11.9992008;-77.048406
365;POLICLINICO PROCERES;AVENIDA Av. Próceres de la Independencia 2024, Mz F lote 4ª APV San Hilarion NÚMERO 2024 PISO 1 DEPARTAMENTO 1 INTERIOR 1 MANZANA F LOTE 4A URBANIZACIÓN San Hilarion DISTRITO SAN JUAN DE LURIGANCHO PROVINCIA LIMA DEPARTAMENTO LIMA;San Juan de Lurigancho;163;880;-12.0778293;-77.0087117
366;COMASKA;AVENIDA GENERAL EUGENIO GARZON NÚMERO 1793 DISTRITO JESUS MARIA PROVINCIA LIMA DEPARTAMENTO LIMA;Jesus Maria;710;690;-12.0988511;-77.0541556
367;CENTRO MÉDICO ALTASALUD;CALLE Plaza 27 de Noviembre NÚMERO 260 DISTRITO SAN ISIDRO PROVINCIA LIMA DEPARTAMENTO LIMA;San Isidro;363;320;-12.0728103;-77.0295718
368;CENTRO MEDICO PULSO SALUD;AVENIDA ELMER FAUCETT NÚMERO 150 URBANIZACIÓN MARANGA 4TA ETAPA DISTRITO SAN MIGUEL PROVINCIA LIMA DEPARTAMENTO LIMA;San Miguel;820;470;-12.0918327;-77.0987975
369;CMT CENTRO MEDICO DEL TRABAJADOR;AVENIDA FAUSTINO SANCHEZ CARRION NÚMERO 960 DISTRITO MAGDALENA DEL MAR PROVINCIA LIMA DEPARTAMENTO LIMA;Magdalena del Mar;76;860;-12.106907;-77.0554702
370;AC SALUD Y MEDIO AMBIENTE E.I.R.L.;JIRÓN MOROCOCHA NÚMERO 198 DISTRITO SURQUILLO PROVINCIA LIMA DEPARTAMENTO LIMA;Surquillo;112;440;-12.0952469;-77.019649
371;CAMERE & LARA ODONTOLOGIA ESPECIALIZADA;JIRÓN CONTRALMIRANTE MONTERO (EX ALBERTO DEL CAMPO) NÚMERO 409 PISO 6 DEPARTAMENTO 602 DISTRITO MAGDALENA DEL MAR PROVINCIA LIMA DEPARTAMENTO LIMA;Magdalena del Mar;30;720;-12.1161539;-77.0593246
372;CENTRO MÉDICO OCUPACIONAL PULSO SALUD;AVENIDA COMANDANTE ESPINAR NÚMERO 368 DISTRITO MIRAFLORES PROVINCIA LIMA DEPARTAMENTO LIMA;Miraflores;55;800;-12.1000568;-77.036679
373;FERTIVIDA;AVENIDA PETIT THOUARS NÚMERO 3841 DISTRITO SAN ISIDRO PROVINCIA LIMA DEPARTAMENTO LIMA;San Isidro;56;840;-12.00294239;-77.0309309
374;CENTRO ODONTOLOGICO ROAXDENT;AVENIDA AV. LOS JARDINES ESTE NÚMERO 998 PISO 1 MANZANA RV LOTE 46 URBANIZACIÓN Inca Manco Capac 3era etapa DISTRITO SAN JUAN DE LURIGANCHO PROVINCIA LIMA DEPARTAMENTO LIMA;San Juan de Lurigancho;38;780;-12.0895017;-76.99424883
375;POLICLINICO REDMEDIC;JIRÓN (JUNIN) NÚMERO 135 DISTRITO MAGDALENA DEL MAR PROVINCIA LIMA DEPARTAMENTO LIMA;Magdalena del Mar;44;480;-11.9756857;-77.0667065
376;PUESTO DE SALUD PROYECTOS ESPECIALES;AVENIDA CRUCE DE AV. JOSÉ CARLOS MARIÁTEGUI S/N CON AV. BAYOVAR NÚMERO S/N DISTRITO SAN JUAN DE LURIGANCHO PROVINCIA LIMA DEPARTAMENTO LIMA;San Juan de Lurigancho;49;540;-11.9558652;-76.9924377
377;TUPAC AMARU II;OTROS MZ.A - LOTE S/N AAHH JAVIER PEREZ DE CUELLAR S/N MZ.A - LOTE S/N AAHH JAVIER PEREZ DE CUELLAR SAN JUAN DE LURIGANCHO LIMA LIMA;San Juan de Lurigancho;61;860;-11.9719013;-77.0041423
378;JOSE CARLOS MARIATEGUI V ETAPA;OTROS MZ. X1 LOTE 1 PROGRAMA MARISCAL CÁCERES SECTOR II MZ. X1 LOTE 1 PROGRAMA MARISCAL CÁCERES SECTOR II SAN JUAN DE LURIGANCHO LIMA LIMA;San Juan de Lurigancho;35;990;-11.931421;-76.990361
379;AZCARRUNZ ALTO;AVENIDA AV.LURIGANCHO CDRA.9 S/N MZ.B LOTE 49 - URB.AZCARRUNZ ALTO NÚMERO S/N DISTRITO SAN JUAN DE LURIGANCHO PROVINCIA LIMA DEPARTAMENTO LIMA;San Juan de Lurigancho;17;970;-12.0064933;-77.0038652
380;SAN JUAN MASIAS;JIRÓN JR DE LA HISTORIA MZ C LOTE 19 AAHH SAN JUAN MASIAS DISTRITO SAN BORJA PROVINCIA LIMA DEPARTAMENTO LIMA;San Borja;94;560;-12.0843101;-77.0023224
381;PUESTO DE SALUD RESCATE;JIRÓN JR PRATT S/N AAHH 11 DE OCTUBRE NÚMERO S/N DISTRITO LIMA PROVINCIA LIMA DEPARTAMENTO LIMA;Cercado de Lima;250;520;-12.0411673;-77.0623558
382;PUESTO DE SALUD PALERMO;AVENIDA MZ L LOTE 20 AAHH 1° DE SETIEMBRE ALT CUADRA 21 AV MATERIALES MZ L LOTE 20 AAHH 1° DE SETIEMBRE ALT CUADRA 21 AV MATERIALES LIMA LIMA LIMA;Cercado de Lima;189;550;-12.0410293;-77.0688186
383;PUESTO DE SALUD HUACA PANDO;OTROS LOS SAUCES MZ B-II NOVENA ETAPA LOS SAUCES MZ B-II NOVENA ETAPA SAN MIGUEL LIMA LIMA;San Miguel;295;1130;-12.061614;-77.083277
384;PUESTO DE SALUD SAGRADA FAMILIA;AVENIDA MZ. I LT. 8 AV. EL PARQUE COOP. SAGRADA FAMILIA DISTRITO SAN JUAN DE LURIGANCHO PROVINCIA LIMA DEPARTAMENTO LIMA;San Juan de Lurigancho;42;660;-11.9765576;-76.9888845
385;CESAR VALLEJO;OTROS MZ. P LOTE Nº3 - AAHH CESAR VALLEJO MZ. P LOTE Nº3 - AAHH CESAR VALLEJO SAN JUAN DE LURIGANCHO LIMA LIMA;San Juan de Lurigancho;54;960;-11.94722;-77.00766
386;MARISCAL CACERES;AVENIDA MZ. N8 LT. 4 URB. MARISCAL CACERES (ALT. PDO. 5 AV. EL MURO) MZ. N8 LT. 4 URB. MARISCAL CACERES (ALT. PDO. 5 AV. EL MURO) SAN JUAN DE LURIGANCHO LIMA LIMA;San Juan de Lurigancho;13;790;-11.9493125;-76.9812579
387;CEN MEDIC;AVENIDA AV.REPUBLICA DE PANAMA 4774-202-203 DISTRITO SURQUILLO PROVINCIA LIMA DEPARTAMENTO LIMA;Surquillo;163;560;-12.112625;-77.018626
388;MEDICENTRO SAN ISIDRO;AVENIDA AV. PASEO DE LA REPUBLICA Nº 3058 DISTRITO SAN ISIDRO PROVINCIA LIMA DEPARTAMENTO LIMA;San Isidro;67;990;-12.09308288;-77.02398575
389;CONSULTORIO MEDICO DE LABORATORIOS ROE;AVENIDA AV. GUARDIA CIVIL N° 711 DISTRITO SAN BORJA PROVINCIA LIMA DEPARTAMENTO LIMA;San Borja;30;380;-12.09690149;-77.01122916
390;INSTITUTO DE INVESTIGACION NUTRICIONAL;AVENIDA RIO GRANDE GRUPO XV  AA.HH HUASCAR MZ 122 LT 20-21 NÚMERO SN DISTRITO SAN JUAN DE LURIGANCHO PROVINCIA LIMA DEPARTAMENTO LIMA;San Juan de Lurigancho;175;1170;-11.95583591;-77.00252757
391;INSTITUCION PARA EL DESARROLLO PSICOPEDAGOGICO DEL NIÑO Y EL ADOLESCENTE LA LUZ D;AVENIDA AVENIDA PRINCIPAL MANZANA P LOTE 12 URBANIZACION EL REDUCTO DISTRITO SURQUILLO PROVINCIA LIMA DEPARTAMENTO LIMA;Surquillo;16;1090;-12.1143258;-77.00690947
392;JORGE CENTENO HUAMAN & SERVICIOS MEDICOS E.I.R.L;AVENIDA AV. JAVIER PRADO ESTE 1066 DISTRITO SAN ISIDRO PROVINCIA LIMA DEPARTAMENTO LIMA;San Isidro;7;1150;-12.0907032;-77.0182866
393;CEDOMUH;JIRÓN JR. MANUEL DEL PINO N° 110 DISTRITO LIMA PROVINCIA LIMA DEPARTAMENTO LIMA;Cercado de Lima;275;350;-12.078841;-77.036389
394;POSTA MÉDICA CONSTRUCCIÓN CIVIL;PROLONGACIÓN PROLONGACIÓN CANGALLO N° 670 DISTRITO LA VICTORIA PROVINCIA LIMA DEPARTAMENTO LIMA;La Victoria;69;660;-12.0550758;-77.0241856
395;CENTRO DE TERAPIA ALTERNATIVA Y ANTIENVEJECIMIENTO;CALLE CALLE GONZALES OLAECHEA 211 DISTRITO SAN ISIDRO PROVINCIA LIMA DEPARTAMENTO LIMA;San Isidro;20;310;-12.0997587;-77.0362967
396;JEFFERSON II MEDIC CENTER;OTROS MZ. N LOTE 02 AH JESUS OROPEZA CHONTA MZ. N LOTE 02 AH JESUS OROPEZA CHONTA SAN JUAN DE LURIGANCHO LIMA LIMA;San Juan de Lurigancho;240;1110;-11.96698349;-77.00314966
397;NEOMEDIC S.A.;AVENIDA AV. J GALVEZ BARRENECHEA Nº 387 CORPAC AV. J GALVEZ BARRENECHEA Nº 387 CORPAC SAN ISIDRO LIMA LIMA;San Isidro;81;1010;-12.09459879;-77.01299942
398;CONSULTORIO MEDICO HOMEOPATA;CALLE CALLE MORELLI 217 OFICINA 201 DISTRITO SAN BORJA PROVINCIA LIMA DEPARTAMENTO LIMA;San Borja;165;510;-12.0899846;-77.0038959
399;ONCOSALUD;AVENIDA AV. PASEO DE LA REPUBLICA Nº 3650-3658 DISTRITO SAN ISIDRO PROVINCIA LIMA DEPARTAMENTO LIMA;San Isidro;252;710;-12.10127865;-77.02750481
400;CONSULTORIO OFTALMOLOGICO DAMOS VISION;AVENIDA BRASIL NÚMERO 1125 DISTRITO JESUS MARIA PROVINCIA LIMA DEPARTAMENTO LIMA;Jesus Maria;87;960;-12.0706528;-77.0498014
401;RICARDO JORGE  ABUGATTAS  JASAUI   (  INSTITUTO  );JIRÓN JR. WASHINGTON NO 1491 - 3ER NIVEL - D DISTRITO LIMA PROVINCIA LIMA DEPARTAMENTO LIMA;Cercado de Lima;19;530;-12.05956284;-77.0390249
402;CERFID;AVENIDA AV. AREQUIPA 1802 DISTRITO LINCE PROVINCIA LIMA DEPARTAMENTO LIMA;Lince;136;270;-12.082726;-77.034916
403;CENTRO DETECTOR DEL CANCER SAC;AVENIDA PRADO ESTE, JAVIER N° 1010 INT 304 DISTRITO SAN ISIDRO PROVINCIA LIMA DEPARTAMENTO LIMA;San Isidro;14;520;-12.0903631;-77.0188916
404;BEMEDIC S.A.C.;AVENIDA AV. SAN BORJA SUR 764 - URB. SAN BORJA DISTRITO SAN BORJA PROVINCIA LIMA DEPARTAMENTO LIMA;San Borja;120;620;-12.1007579;-76.9976145
405;INTEGRASALUD CONSULTORIOS MÉDICOS;AVENIDA AV. SALAVERRY 1258 DISTRITO JESUS MARIA PROVINCIA LIMA DEPARTAMENTO LIMA;Jesus Maria;80;600;-12.07853182;-77.04254664
406;SUIZA LAB SAC;AVENIDA AV. ALFONSO UGARTE 1000-A DISTRITO BREÑA PROVINCIA LIMA DEPARTAMENTO LIMA;Breña;220;1060;-12.0520372;-77.042496
407;ANDROMED;AVENIDA AV. SAN BORJA SUR N° 231 DISTRITO SAN BORJA PROVINCIA LIMA DEPARTAMENTO LIMA;San Borja;172;600;-12.099803;-77.0090939
408;BELEZA DO CORPO;AVENIDA AV.SAN BORJA SUR 233-SAN BORJA DISTRITO SAN BORJA PROVINCIA LIMA DEPARTAMENTO LIMA;San Borja;30;1120;-12.1004869;-77.0002176
409;CENTRO CAMELIAS;AVENIDA AV. JAVIER PRADO ESTE 414 DISTRITO SAN ISIDRO PROVINCIA LIMA DEPARTAMENTO LIMA;San Isidro;11;1170;-12.092005;-77.0296706
410;PIES SALUDABLES;JIRÓN JR. SOLEDAD N°113 OF. 202 LINCE DISTRITO LINCE PROVINCIA LIMA DEPARTAMENTO LIMA;Lince;152;540;-12.0853194;-77.0357761
411;INSTITUTO DE SALUD LIBERTAD SAC;OTROS V. ERNESTO DIEZ CANSECO 493 1ER Y 2DO PISO DISTRITO MIRAFLORES PROVINCIA LIMA DEPARTAMENTO LIMA;Miraflores;50;320;-12.12208822;-77.02580161
412;CONSULTORIOS MAS VIDA;AVENIDA AV. PROCERES DE LA INDEPENDENCIA 3954 - ASOC. RAMON CASTILLA DISTRITO SAN JUAN DE LURIGANCHO PROVINCIA LIMA DEPARTAMENTO LIMA;San Juan de Lurigancho;12;940;-11.9653083;-76.9911667
413;SAN PABLO MEDIC CENTER;AVENIDA AV. CANTO GRANDE, MZ. N, LOTE 1 - AAHH JESUS OROPEZA CHONTA DISTRITO SAN JUAN DE LURIGANCHO PROVINCIA LIMA DEPARTAMENTO LIMA;San Juan de Lurigancho;5;1040;-11.96716717;-77.00327035
414;VASCOR.;AVENIDA AV. EMILIO CAVENECIA N° 225 OFICINAS 104 - 105 DISTRITO SAN ISIDRO PROVINCIA LIMA DEPARTAMENTO LIMA;San Isidro;3;1150;-12.1087591;-77.0386433
415;SERLUNG SRL;AVENIDA AV. GREGORIO ESCOBEDO 676-713 DISTRITO JESUS MARIA PROVINCIA LIMA DEPARTAMENTO LIMA;Jesus Maria;30;540;-12.0859538;-77.0541078
416;INSTITUTO ONCOLOGICO FEMENINO SOCIEDAD ANONIMA CERRADA;AVENIDA AVENIDA AREQUIPA NRO 234 DISTRITO LIMA PROVINCIA LIMA DEPARTAMENTO LIMA;Cercado de Lima;143;510;-12.066156;-77.037442
417;CESAR VALLEJO MEDIC CENTER;AVENIDA AV. SAN MARTIN 101-103 AH JESUS OROPEZA CHONTA DISTRITO SAN JUAN DE LURIGANCHO PROVINCIA LIMA DEPARTAMENTO LIMA;San Juan de Lurigancho;47;310;-11.96814851;-77.00371292
418;CONSULTORIOS MÉDICOS ASISTENCIALES JESÚS REDENTOR;CALLE CALLE LOS CANAMELARES 237 URB. MARANGA DISTRITO SAN MIGUEL PROVINCIA LIMA DEPARTAMENTO LIMA;San Miguel;131;730;-12.0764392;-77.10444883
419;CENTRO MÈDICO  ONCOLÓGICO;AVENIDA AV. ANGAMOS ESTE S/N MZ. F-7 LT. Nº47-URB. PAPA JUAN XXIII NÚMERO S/N DISTRITO SAN BORJA PROVINCIA LIMA DEPARTAMENTO LIMA;San Borja;45;410;-12.1112453;-76.9966933
420;LIGA CONTRA EL CANCER;AVENIDA AVENIDA ANGAMOS ESTE 2514 OF 301,302 AVENIDA ANGAMOS ESTE 2514 OF 301,302 SURQUILLO LIMA LIMA;Surquillo;5;640;-12.1120664;-77.0017457
421;MARLENA AIDA VIRIJIVICH LOPEZ;AVENIDA AV. AURELIO MIRO QUESADA 1048 - 405 DISTRITO SAN ISIDRO PROVINCIA LIMA DEPARTAMENTO LIMA;San Isidro;10;440;-12.0988994;-77.0519596
422;CENTRO DR GALVEZ;AVENIDA AV. CUBA 214 DISTRITO JESUS MARIA PROVINCIA LIMA DEPARTAMENTO LIMA;Jesus Maria;147;1090;-12.0747549;-77.0385263
423;CONSULTORIO MEDICO QUINTO;AVENIDA AV. EMILIO CAVENECIA 225 INT 612 DISTRITO SAN ISIDRO PROVINCIA LIMA DEPARTAMENTO LIMA;San Isidro;10;550;-12.1088267;-77.0385747
424;OFTALMOCENTRO;AVENIDA AV. DE LAS ARTES NORTE 508 URB SAN BORJA DISTRITO SAN BORJA PROVINCIA LIMA DEPARTAMENTO LIMA;San Borja;18;910;-12.09092473;-77.00279396
425;SERVICIOS MÉDICOS PLASTIKA;AVENIDA AV JAVIER PRADO ESTE 1038 OFICINA 501 - URB EL PALOMAR DISTRITO SAN ISIDRO PROVINCIA LIMA DEPARTAMENTO LIMA;San Isidro;1;1000;-12.0906808;-77.0181231
426;ASOCIACION DE OFICIALES GENERALES Y ALMIRANTES - ADOGEN PERU;AVENIDA AV ANDRES SANTA CRUZ 865 DISTRITO MIRAFLORES PROVINCIA LIMA DEPARTAMENTO LIMA;Miraflores;42;1170;-12.1115839;-77.0377879
427;CENTRO DE CIRUGIA PLASTICA & DERMATOLOGIA;AVENIDA AV GREGORIO ESCOBEDO 788 CONSULTORIO 302 DISTRITO JESUS MARIA PROVINCIA LIMA DEPARTAMENTO LIMA;Jesus Maria;6;280;-12.0870796;-77.0555806
428;GRUPO MEDICO SAN ANGEL S.A.C;AVENIDA AV. JAVIER PRADO ESTE NO. 1010 INT. 807 DISTRITO SAN ISIDRO PROVINCIA LIMA DEPARTAMENTO LIMA;San Isidro;3;1100;-12.0905573;-77.0183295
429;FISIOCLASS SAC;AVENIDA AV. AREQUIPA 1802, 2DO PISO DISTRITO LINCE PROVINCIA LIMA DEPARTAMENTO LIMA;Lince;55;830;-12.0827554;-77.0350147
430;SERVICIOS INTEGRALES DE SALUD SANTO DOMINGO EIRL;AVENIDA AV AREQUIPA 1295 2DO PISO - URB SANTA BEATRIZ DISTRITO LIMA PROVINCIA LIMA DEPARTAMENTO LIMA;Cercado de Lima;53;450;-12.07760465;-77.03524835
431;SOLUMEDICAL;AVENIDA AV. CANADA 3221 - URBANIZACION JAVIER PRADO IV ETAPA DISTRITO SAN LUIS PROVINCIA LIMA DEPARTAMENTO LIMA;San Luis;30;540;-12.08184968;-76.99671573
432;LATIN ESTHETIC;AVENIDA AV. MANUEL CIPRIANO DULANTO 1545 1ER PISO DISTRITO PUEBLO LIBRE PROVINCIA LIMA DEPARTAMENTO LIMA;Pueblo Libre;2;750;-12.0787583;-77.0655415
433;SANIDAD DEL CUARTEL GENERAL DE LA FUERZA AEREA DEL PERU-FAP;AVENIDA AV. DE LA PERUANIDAD S/N NÚMERO S/N DISTRITO JESUS MARIA PROVINCIA LIMA DEPARTAMENTO LIMA;Jesus Maria;13;650;-12.0660014;-77.0408456
434;CONSULTORIOS ROBCUA E.I.R.L.;JIRÓN JR. ECHENIQUE 459 DISTRITO MAGDALENA DEL MAR PROVINCIA LIMA DEPARTAMENTO LIMA;Magdalena del Mar;2;600;-12.0923388;-77.0755527
435;FELIZMENTE SEGUROS;OTROS PSJE SUCRE N° 189 INTERIOR 202 DISTRITO MIRAFLORES PROVINCIA LIMA DEPARTAMENTO LIMA;Miraflores;12;1040;-12.1273097;-77.0254849
436;TOMODISAC;AVENIDA AV. LAS FLORES DE PRIMAVERA Nº 1757, COOPERATIVA LAS FLORES DISTRITO SAN JUAN DE LURIGANCHO PROVINCIA LIMA DEPARTAMENTO LIMA;San Juan de Lurigancho;20;300;-12.000142;-77.0139181
437;POLICLINICO SAN RAMON;AVENIDA AV DEL AIRE Nº 1005 - URB TUPAC AMARU DISTRITO SAN LUIS PROVINCIA LIMA DEPARTAMENTO LIMA;San Luis;204;810;-12.07967555;-77.00157895
438;CENTRO DE MEDICINA FÍSICA Y REHABILITACIÓN;AVENIDA AVENIDA BENAVIDES 2525 DISTRITO MIRAFLORES PROVINCIA LIMA DEPARTAMENTO LIMA;Miraflores;16;1110;-12.1275952;-77.007663
439;CONSULTORIO MEDICO DE CIRUGIA PLASTICA;AVENIDA AV. AREQUIPA 2685, OF. 510 DISTRITO LINCE PROVINCIA LIMA DEPARTAMENTO LIMA;Lince;4;600;-12.09041757;-77.03344579
440;BOSTON MEDICAL GROUP;OTROS AV. ALFREDO BENAVIDES N° 1579 INTERIOR 302 DISTRITO MIRAFLORES PROVINCIA LIMA DEPARTAMENTO LIMA;Miraflores;1;440;-12.1263081;-77.01647
441;AGUILAR CIRUGÍA PLÁSTICA;AVENIDA AV. AREQUIPA 210, URB SANTA BEATRIZ DISTRITO LIMA PROVINCIA LIMA DEPARTAMENTO LIMA;Cercado de Lima;1;1130;-12.06591702;-77.03747324
442;CONSULTORIO PSICOLÓGICO Y PSIQUIÁTRICO GESS;AVENIDA AV. CONTRALMIRANTE MONTERO (ANTES AV. ALBERTO DEL CAMPO) N° 1008 -2DO PISO MAGDALENA DEL MAR DISTRITO MAGDALENA DEL MAR PROVINCIA LIMA DEPARTAMENTO LIMA;Magdalena del Mar;4;320;-12.0898387;-77.0658688
443;DENTAL ORTOCLINIC;AVENIDA AVENIDA ARNALDO MARQUEZ 1518 DISTRITO JESUS MARIA PROVINCIA LIMA DEPARTAMENTO LIMA;Jesus Maria;2;820;-12.075691;-77.0514205
444;CENTRO ESPECIALIZADO DE DIAGNOSTICO  PAOLSA;AVENIDA AV. VENEZUELA  N° 625     OFICINA   321-310-320-301 DISTRITO BREÑA PROVINCIA LIMA DEPARTAMENTO LIMA;Breña;3;580;-12.054682;-77.0427857
445;CONSULTORIO DE OJOS PRIMAVERA;AVENIDA AV. PROLONGACION PRIMAVERA N° 887, URB. CHACARILLA DEL ESTANQUE DISTRITO SAN BORJA PROVINCIA LIMA DEPARTAMENTO LIMA;San Borja;29;1050;-12.1102978;-76.9835449
446;CONSULTORIOS MÉDICOS SAN LUIS;AVENIDA AVENIDA SAN LUIS 938 URB. LAS MORAS DISTRITO SAN LUIS PROVINCIA LIMA DEPARTAMENTO LIMA;San Luis;23;1180;-12.0757621;-77.00087584
447;FEMEVA;AVENIDA AV.JAVIER PRADO ESTE 1010 INT. 904 SAN ISIDRO DISTRITO SAN ISIDRO PROVINCIA LIMA DEPARTAMENTO LIMA;San Isidro;25;930;-12.0905573;-77.0183295
448;360 MEDICINA.ESTETICA.IMAGEN;CALLE CALLE LEONIDAS YEROVI N° 106, INTERIOR 72 DISTRITO SAN ISIDRO PROVINCIA LIMA DEPARTAMENTO LIMA;San Isidro;4;990;-12.1048952;-77.04174197
449;CONSULTORIO PREVENCION Y SALUD;OTROS MZ G-8 LOTE 18 A.A.H.H JOSE CARLOS MARIATEGUI DISTRITO SAN JUAN DE LURIGANCHO PROVINCIA LIMA DEPARTAMENTO LIMA;San Juan de Lurigancho;110;720;-11.9459833;-76.98465384
450;HYPNOS SRL;AVENIDA AV. GREGORIO ESCOBEDO Nº 676, CONSULTORIO 813 DISTRITO JESUS MARIA PROVINCIA LIMA DEPARTAMENTO LIMA;Jesus Maria;20;790;-12.0750295;-77.0435289
451;FERTILITY & DNA S.A.C.;AVENIDA AV. SUCRE 1216 DISTRITO MAGDALENA DEL MAR PROVINCIA LIMA DEPARTAMENTO LIMA;Magdalena del Mar;23;370;-12.08732078;-77.06870086
452;MEDICAL HAIR PERU;OTROS BENAVIDES 768 DPTO 305 BENAVIDES 768 DPTO 305 MIRAFLORES LIMA LIMA;Miraflores;4;500;-12.1257155;-77.0201475
453;SPLENDOR SALUD Y BELLEZA;AVENIDA ALFONSO UGARTE NÚMERO 1454 PISO 2 DEPARTAMENTO 202 DISTRITO BREÑA PROVINCIA LIMA DEPARTAMENTO LIMA;Breña;101;960;-12.0590637;-77.0418966
454;CONSULTORIO ONCOLÓGICO MEDICARTE;CALLE CALLE ROSA TOLEDO 405, OFICINA 101 DISTRITO PUEBLO LIBRE PROVINCIA LIMA DEPARTAMENTO LIMA;Pueblo Libre;7;950;-12.07652537;-77.06559289
455;CANADA VISION;AVENIDA AVENIDA CANADA 3339/ URBANIZACION JAVIER PRADO CUARTA ETAPA DISTRITO SAN LUIS PROVINCIA LIMA DEPARTAMENTO LIMA;San Luis;45;940;-12.0812401;-76.99528
456;ESPINOZA SOLIS CARDIOLOGIA;AVENIDA AV. JAVIER PRADO ESTE 1010 INT.302 DISTRITO SAN ISIDRO PROVINCIA LIMA DEPARTAMENTO LIMA;San Isidro;269;250;-12.0906808;-77.0181231
457;CENTRO MEDICO COSMOP;AVENIDA AV. BRASIL 804 DISTRITO BREÑA PROVINCIA LIMA DEPARTAMENTO LIMA;Breña;124;1140;-12.067267;-77.04763
458;CEN DE ALERGIA E INMULOLOGIA;AVENIDA AV. JAVIER PRADO ESTE 1010 INT. 501 SAN ISIDRO DISTRITO SAN ISIDRO PROVINCIA LIMA DEPARTAMENTO LIMA;San Isidro;100;870;-12.0906808;-77.0181231
459;CONSULTORIO FEMENINO ZARATE;AVENIDA AV . GRAN CHIMU 555 ZARATE DISTRITO SAN JUAN DE LURIGANCHO PROVINCIA LIMA DEPARTAMENTO LIMA;San Juan de Lurigancho;14;1160;-12.02671544;-77.00463898
460;GASTRODERM;AVENIDA AV ENRIQUE PALACIOS 420  OFICINA 404 DISTRITO MIRAFLORES PROVINCIA LIMA DEPARTAMENTO LIMA;Miraflores;60;350;-12.1167039;-77.0328704
461;MEDIREHAB;AVENIDA AV. TALARA N° 281, URBANIZACIÓN FUNDO OYAGUE DISTRITO JESUS MARIA PROVINCIA LIMA DEPARTAMENTO LIMA;Jesus Maria;70;730;-12.06946848;-77.04639158
462;MUJER GINECOLOGAS ASOCIADAS;AVENIDA AV. BRASIL NRO. 1565 JESUS MARIA DISTRITO JESUS MARIA PROVINCIA LIMA DEPARTAMENTO LIMA;Jesus Maria;3;330;-12.0748367;-77.053242
463;DOS ESENCIAS SAC;CALLE CALLE CANTUARIAS 160 OF 401 DISTRITO MIRAFLORES PROVINCIA LIMA DEPARTAMENTO LIMA;Miraflores;15;1200;-12.1211773;-77.0282223
464;SISALUD - SERVICIO DE ATENCION INTEGRAL EN SALUD;JIRÓN JIRON PEZET Y MONEL N° 1850 INTERIOR 101 DISTRITO LINCE PROVINCIA LIMA DEPARTAMENTO LIMA;Lince;6;750;-12.084129;-77.042668
465;CLINICA DR AUGUSTO CACERES CABELLO-PIEL Y MEDICINA ESTETICA;OTROS MARISCAL SUCRE (Ex INDEPENDENCIA) NÚMERO 899 DISTRITO MAGDALENA DEL MAR PROVINCIA LIMA DEPARTAMENTO LIMA;Magdalena del Mar;4;520;-12.0901843;-77.0698192
466;OZONO3VIDA;AVENIDA JAVIER PRADO ESTE 175 OFICINA 503 DISTRITO SAN ISIDRO PROVINCIA LIMA DEPARTAMENTO LIMA;San Isidro;44;1060;-12.09199184;-77.03296579
467;OFTALMÓLOGOS CONTRERAS C. SCRL;AVENIDA AV. JAVIER PRADO ESTE Nº 1038 INTERIOR 1001-1002 DISTRITO SAN ISIDRO PROVINCIA LIMA DEPARTAMENTO LIMA;San Isidro;67;930;-12.091248;-77.018636
468;OCUVISION;AVENIDA TINGO MARIA 725 DISTRITO BREÑA PROVINCIA LIMA DEPARTAMENTO LIMA;Breña;58;570;-12.0535631;-77.055961
469;CLIN.OFT.CAUTI BO?A OFTALMOLOG;AVENIDA DE LAS ARTES SUR NÚMERO 168 PISO 168 DEPARTAMENTO 168 INTERIOR 168 MANZANA N LOTE 09 URBANIZACIÓN SAN BORJA SUR DISTRITO SAN BORJA PROVINCIA LIMA DEPARTAMENTO LIMA;San Borja;1;1190;-12.0959203;-77.0058766
470;CASA LA VISITACION SALUD Y SERVICIO;AVENIDA GUILLERMO DANSEY NÚMERO 534 DISTRITO LIMA PROVINCIA LIMA DEPARTAMENTO LIMA;Cercado de Lima;118;690;-12.0451984;-77.0462473
471;R Y JF EIRL;AVENIDA ARENALES NÚMERO 1912 PISO 2 DEPARTAMENTO 205 DISTRITO LINCE PROVINCIA LIMA DEPARTAMENTO LIMA;Lince;19;1160;-12.0838876;-77.0358194
472;OPTICA DORADA;AVENIDA CUBA NÚMERO 1237 DISTRITO JESUS MARIA PROVINCIA LIMA DEPARTAMENTO LIMA;Jesus Maria;93;720;-12.07527949;-77.04720295
473;"CONSULTORIO MÉDICO "" MALLAUPOMA""";AVENIDA ALVAREZ DE ARENALES, JUAN ANTONIO NÚMERO 1912 PISO 8 DEPARTAMENTO 804 URBANIZACIÓN LOBATON DISTRITO LINCE PROVINCIA LIMA DEPARTAMENTO LIMA;Lince;13;360;-12.0838876;-77.0358194
474;MULTILAB;AVENIDA GRAN CHIMU NÚMERO 620 DISTRITO SAN JUAN DE LURIGANCHO PROVINCIA LIMA DEPARTAMENTO LIMA;San Juan de Lurigancho;16;820;-12.0264464;-77.003355
475;GLOMACH MEDIC;JIRÓN Jorge Valdeavellano NÚMERO 103 URBANIZACIÓN Santa Catalina DISTRITO LA VICTORIA PROVINCIA LIMA DEPARTAMENTO LIMA;La Victoria;260;600;-12.08862952;-77.01063908
476;MULTILAB;AVENIDA Alfonso Ugarte NÚMERO 1418 DISTRITO BREÑA PROVINCIA LIMA DEPARTAMENTO LIMA;Breña;190;710;-12.0586098;-77.0419386
477;JUAN CHUNGA CHUNGA;AVENIDA Garcilaso de la Vega NÚMERO 911 PISO 2 DEPARTAMENTO 20 DISTRITO LIMA PROVINCIA LIMA DEPARTAMENTO LIMA;Cercado de Lima;26;590;-12.05105889;-77.03867084
478;CLINICA UNIDERMA PERU;AVENIDA CUBA NÚMERO 863 DISTRITO JESUS MARIA PROVINCIA LIMA DEPARTAMENTO LIMA;Jesus Maria;388;520;-12.0756967;-77.0438757
479;G&G CONSULTORIOS E.I.R.L;CALLE MARTIN DE MURUA NÚMERO 150 PISO 5 DEPARTAMENTO 503 URBANIZACIÓN MARANGA DISTRITO SAN MIGUEL PROVINCIA LIMA DEPARTAMENTO LIMA;San Miguel;110;1200;-12.07634991;-77.09096091
480;DERMA LINE S.A.C.;JIRÓN JOAQUIN VALVERDE NÚMERO 299 MANZANA J13 LOTE 10 DISTRITO SAN BORJA PROVINCIA LIMA DEPARTAMENTO LIMA;San Borja;493;400;-12.09970508;-76.99668086
481;SKINLUTION;CALLE LEONIDAS YEROVI NÚMERO 106 PISO 4 DEPARTAMENTO 42 DISTRITO SAN ISIDRO PROVINCIA LIMA DEPARTAMENTO LIMA;San Isidro;17;420;-12.1059411;-77.0406029
482;MEDICINA FÍSICA Y REHABILITACIÓN JESUS MARIA;AVENIDA JOSE MARIA PLAZA 187 1 JESUS MARIA LIMA LIMA;Jesus Maria;10;1100;-12.06672883;-77.04794324
483;CEOSAVIS;JIRÓN antonio miroquesada NÚMERO 121 DISTRITO LIMA PROVINCIA LIMA DEPARTAMENTO LIMA;Cercado de Lima;13;480;-12.0481611;-77.0324112
484;NEOMEDICA;AVENIDA Larco N?ERO 743 PISO 8 DEPARTAMENTO 801 DISTRITO MIRAFLORES PROVINCIA LIMA DEPARTAMENTO LIMA;Miraflores;51;460;-12.1249767;-77.0293011
485;CONSULTORIO MEDICO ESPECIALIZADO EN CIRUGÍA PLASTICA;CALLE GENERAL BORGOÑO NÚMERO 1157 DISTRITO MIRAFLORES PROVINCIA LIMA DEPARTAMENTO LIMA;Miraflores;208;440;-12.1151565;-77.0334095
486;VASCUSALUD;JIRÓN CORONEL ZEGARRA NÚMERO 1085 DISTRITO JESUS MARIA PROVINCIA LIMA DEPARTAMENTO LIMA;Jesus Maria;23;310;-12.0764456;-77.0458547
487;C.M PERPETUO SOCORRO;JIRÓN LEGION PERUANA NÚMERO 170 PISO 1 URBANIZACIÓN AA. HH. DOS DE MAYO DISTRITO LIMA PROVINCIA LIMA DEPARTAMENTO LIMA;Cercado de Lima;7;870;-12.0368507;-77.0507244
488;DERMACLINIC MEJIA;AVENIDA DE LOS PATRIOTAS NÚMERO 124 URBANIZACIÓN MARANGA 1 ERA ETAPA DISTRITO SAN MIGUEL PROVINCIA LIMA DEPARTAMENTO LIMA;San Miguel;8;530;-12.0787579;-77.0942079
489;CONSULTORIO PERUANO CUBANO;AVENIDA BRASIL NÚMERO 2021 PISO 1 DISTRITO JESUS MARIA PROVINCIA LIMA DEPARTAMENTO LIMA;Jesus Maria;34;910;-12.079411;-77.0571084
490;QARAMEDIC -DERMATOLOGIA INTEGRAL;OTROS PARQUE GONZALES PRADA NÚMERO 295 DISTRITO MAGDALENA DEL MAR PROVINCIA LIMA DEPARTAMENTO LIMA;Magdalena del Mar;3;800;-12.0935729;-77.0662708
491;CENTRO MÉDICO ANTROPOSÓFICO;JIRÓN Francisco de Zela NÚMERO 2672 DISTRITO LINCE PROVINCIA LIMA DEPARTAMENTO LIMA;Lince;18;650;-12.09090604;-77.03908927
492;C. OFTALMOLOGICO VISTA;AVENIDA TINGO MARIA NÚMERO 451 PISO 1 DISTRITO BREÑA PROVINCIA LIMA DEPARTAMENTO LIMA;Breña;93;1010;-12.0584783;-77.0506617
493;SAN CARLOS;AVENIDA CANTO GRANDE  AAHH JESUS OROPEZA CHONTA 3788 2 N 07 FRENTE AL HOSPITAL MATERNO INFANTIL SAN JUAN DE LURIGANCHO LIMA LIMA;San Juan de Lurigancho;8;540;-11.9666591;-77.0029491
494;CONSULTORIO DERMATOLÓGICO GIOVANNI BOJANINI;CALLE elias aguirre NÚMERO 605 INTERIOR 201 DISTRITO MIRAFLORES PROVINCIA LIMA DEPARTAMENTO LIMA;Miraflores;63;390;-12.111408;-77.0345261
495;JULIA BARBOZA DERMATOLOGA;CALLE ENRIQUE PALACIOS NÚMERO 420 PISO 3 DEPARTAMENTO 301 DISTRITO MIRAFLORES PROVINCIA LIMA DEPARTAMENTO LIMA;Miraflores;31;1100;-12.1167039;-77.0328704
496;CONSULTORIOS  MEDICENTER;JIRÓN CAMANA NÚMERO 695 PISO 1 DISTRITO LIMA PROVINCIA LIMA DEPARTAMENTO LIMA;Cercado de Lima;435;950;-12.0492328;-77.0348651
497;DR. HUARCAYA EN LESIONES DEPORTIVAS;AVENIDA CANADA NÚMERO 3326 DISTRITO SAN BORJA PROVINCIA LIMA DEPARTAMENTO LIMA;San Borja;26;930;-12.0817208;-76.9954578
498;CONSULTORIO MEDICO GUADALUPE;JIRÓN LOS MEDICOS PISO 1 MANZANA C LOTE 3 URBANIZACIÓN AA.HH JAIME ZUBIETA CALDERON DISTRITO SAN JUAN DE LURIGANCHO PROVINCIA LIMA DEPARTAMENTO LIMA;San Juan de Lurigancho;356;320;-11.96365093;-76.98839552
499;DR. LUIS BARRENECHEA;AVENIDA PROLONGACION PRIMAVERA NÚMERO 853 DISTRITO SAN BORJA PROVINCIA LIMA DEPARTAMENTO LIMA;San Borja;95;430;-12.1106529;-76.9869777
500;CONSULTORIO PRIVADO DERMATOLÒGICO;AVENIDA Angamos Oeste NÚMERO 896 PISO 1 DISTRITO MIRAFLORES PROVINCIA LIMA DEPARTAMENTO LIMA;Miraflores;15;520;-12.11387473;-77.0377723
